[
  {
    "name": "Bărăbanț",
    "zipcode": "510001",
    "siruta": 1035
  },
  {
    "name": "Micești",
    "zipcode": "510002",
    "siruta": 1044
  },
  {
    "name": "Oarda",
    "zipcode": "510003",
    "siruta": 1053
  },
  {
    "name": "Pâclișa",
    "zipcode": "510004",
    "siruta": 1062
  },
  {
    "name": "Abrud",
    "zipcode": "515100",
    "siruta": 1160
  },
  {
    "name": "Abrud-Sat",
    "zipcode": "515101",
    "siruta": 1179
  },
  {
    "name": "Gura Cornei",
    "zipcode": "515102",
    "siruta": 1188
  },
  {
    "name": "Soharu",
    "zipcode": "515103",
    "siruta": 1197
  },
  {
    "name": "Aiud",
    "zipcode": "515200",
    "siruta": 1222
  },
  {
    "name": "Aiudul de Sus",
    "zipcode": "515201",
    "siruta": 1231
  },
  {
    "name": "Ciumbrud",
    "zipcode": "515202",
    "siruta": 1277
  },
  {
    "name": "Gâmbaș",
    "zipcode": "515203",
    "siruta": 1240
  },
  {
    "name": "Gârbova de Jos",
    "zipcode": "515204",
    "siruta": 1286
  },
  {
    "name": "Gârbova de Sus",
    "zipcode": "515205",
    "siruta": 1295
  },
  {
    "name": "Gârbovița",
    "zipcode": "515206",
    "siruta": 1302
  },
  {
    "name": "Măgina",
    "zipcode": "515207",
    "siruta": 1259
  },
  {
    "name": "Păgida",
    "zipcode": "515208",
    "siruta": 1268
  },
  {
    "name": "Sâncrai",
    "zipcode": "515209",
    "siruta": 1311
  },
  {
    "name": "Țifra",
    "zipcode": "515210",
    "siruta": 1320
  },
  {
    "name": "Baia de Arieș",
    "zipcode": "515300",
    "siruta": 2924
  },
  {
    "name": "Brăzești",
    "zipcode": "515301",
    "siruta": 2933
  },
  {
    "name": "Cioara de Sus",
    "zipcode": "515302",
    "siruta": 2942
  },
  {
    "name": "Muncelu",
    "zipcode": "515303",
    "siruta": 2951
  },
  {
    "name": "Sartăș",
    "zipcode": "515304",
    "siruta": 2960
  },
  {
    "name": "Simulești",
    "zipcode": "515305",
    "siruta": 2979
  },
  {
    "name": "Blaj",
    "zipcode": "515400",
    "siruta": 1357
  },
  {
    "name": "Deleni-Obârșie",
    "zipcode": "515401",
    "siruta": 1366
  },
  {
    "name": "Flitești",
    "zipcode": "515402",
    "siruta": 1375
  },
  {
    "name": "Izvoarele (Blaj)",
    "zipcode": "515403",
    "siruta": 1384
  },
  {
    "name": "Mănărade",
    "zipcode": "515404",
    "siruta": 1428
  },
  {
    "name": "Petrisat",
    "zipcode": "515405",
    "siruta": 1393
  },
  {
    "name": "Spătac",
    "zipcode": "515406",
    "siruta": 1437
  },
  {
    "name": "Tiur",
    "zipcode": "515407",
    "siruta": 1400
  },
  {
    "name": "Veza",
    "zipcode": "515408",
    "siruta": 1419
  },
  {
    "name": "Câmpeni",
    "zipcode": "515500",
    "siruta": 1464
  },
  {
    "name": "Boncești",
    "zipcode": "515501",
    "siruta": 1473
  },
  {
    "name": "Borlești",
    "zipcode": "515502",
    "siruta": 1482
  },
  {
    "name": "Botești (Câmpeni)",
    "zipcode": "515503",
    "siruta": 1491
  },
  {
    "name": "Certege",
    "zipcode": "515504",
    "siruta": 1507
  },
  {
    "name": "Coasta Vâscului",
    "zipcode": "515505",
    "siruta": 1516
  },
  {
    "name": "Dănduț",
    "zipcode": "515506",
    "siruta": 1525
  },
  {
    "name": "Dealu Bistrii",
    "zipcode": "515507",
    "siruta": 1534
  },
  {
    "name": "Dealu Capsei",
    "zipcode": "515508",
    "siruta": 1543
  },
  {
    "name": "Dric",
    "zipcode": "515509",
    "siruta": 1552
  },
  {
    "name": "Fața Abrudului",
    "zipcode": "515510",
    "siruta": 1561
  },
  {
    "name": "Florești (Câmpeni)",
    "zipcode": "515511",
    "siruta": 1570
  },
  {
    "name": "Furduiești (Câmpeni)",
    "zipcode": "515512",
    "siruta": 1589
  },
  {
    "name": "Mihoești",
    "zipcode": "515513",
    "siruta": 1598
  },
  {
    "name": "Motorăști",
    "zipcode": "515514",
    "siruta": 1605
  },
  {
    "name": "Peste Valea Bistrii",
    "zipcode": "515515",
    "siruta": 1614
  },
  {
    "name": "Poduri",
    "zipcode": "515516",
    "siruta": 1623
  },
  {
    "name": "Sorlița",
    "zipcode": "515517",
    "siruta": 1632
  },
  {
    "name": "Tomușești",
    "zipcode": "515518",
    "siruta": 1641
  },
  {
    "name": "Valea Bistrii",
    "zipcode": "515519",
    "siruta": 1650
  },
  {
    "name": "Valea Caselor",
    "zipcode": "515520",
    "siruta": 1669
  },
  {
    "name": "Vârși",
    "zipcode": "515521",
    "siruta": 1678
  },
  {
    "name": "Cugir",
    "zipcode": "515600",
    "siruta": 1703
  },
  {
    "name": "Bocșitura",
    "zipcode": "515601",
    "siruta": 1712
  },
  {
    "name": "Bucuru",
    "zipcode": "515602",
    "siruta": 1721
  },
  {
    "name": "Călene",
    "zipcode": "515603",
    "siruta": 1730
  },
  {
    "name": "Fețeni",
    "zipcode": "515604",
    "siruta": 1749
  },
  {
    "name": "Goașele",
    "zipcode": "515605",
    "siruta": 1758
  },
  {
    "name": "Mugești",
    "zipcode": "515606",
    "siruta": 1767
  },
  {
    "name": "Vinerea",
    "zipcode": "515607",
    "siruta": 1776
  },
  {
    "name": "Ocna Mureș",
    "zipcode": "515700",
    "siruta": 1801
  },
  {
    "name": "Cisteiu de Mureș",
    "zipcode": "515701",
    "siruta": 1838
  },
  {
    "name": "Micoșlaca",
    "zipcode": "515702",
    "siruta": 1847
  },
  {
    "name": "Războieni-Cetate",
    "zipcode": "515703",
    "siruta": 1856
  },
  {
    "name": "Uioara de Jos",
    "zipcode": "515704",
    "siruta": 1810
  },
  {
    "name": "Uioara de Sus",
    "zipcode": "515705",
    "siruta": 1829
  },
  {
    "name": "Sebeș",
    "zipcode": "515800",
    "siruta": 1883
  },
  {
    "name": "Lancrăm",
    "zipcode": "515801",
    "siruta": 1892
  },
  {
    "name": "Răhău",
    "zipcode": "515802",
    "siruta": 1918
  },
  {
    "name": "Petrești",
    "zipcode": "515850",
    "siruta": 1909
  },
  {
    "name": "Teiuș",
    "zipcode": "515900",
    "siruta": 8103
  },
  {
    "name": "Beldiu",
    "zipcode": "515901",
    "siruta": 8112
  },
  {
    "name": "Căpud",
    "zipcode": "515902",
    "siruta": 8121
  },
  {
    "name": "Coșlariu Nou",
    "zipcode": "515903",
    "siruta": 8130
  },
  {
    "name": "Pețelca",
    "zipcode": "515904",
    "siruta": 8149
  },
  {
    "name": "Zlatna",
    "zipcode": "516100",
    "siruta": 1945
  },
  {
    "name": "Botești (Zlatna)",
    "zipcode": "516101",
    "siruta": 1954
  },
  {
    "name": "Budeni",
    "zipcode": "516102",
    "siruta": 1963
  },
  {
    "name": "Dealu Roatei",
    "zipcode": "516103",
    "siruta": 1972
  },
  {
    "name": "Dobrot",
    "zipcode": "516104",
    "siruta": 1981
  },
  {
    "name": "Dumbrava (Zlatna)",
    "zipcode": "516105",
    "siruta": 1990
  },
  {
    "name": "Feneș",
    "zipcode": "516106",
    "siruta": 2005
  },
  {
    "name": "Galați",
    "zipcode": "516107",
    "siruta": 2014
  },
  {
    "name": "Izvoru Ampoiului",
    "zipcode": "516108",
    "siruta": 2023
  },
  {
    "name": "Pătrângeni",
    "zipcode": "516109",
    "siruta": 2032
  },
  {
    "name": "Pârău Gruiului",
    "zipcode": "516110",
    "siruta": 2050
  },
  {
    "name": "Pirita",
    "zipcode": "516111",
    "siruta": 2041
  },
  {
    "name": "Podu lui Paul",
    "zipcode": "516112",
    "siruta": 2069
  },
  {
    "name": "Runc (Zlatna)",
    "zipcode": "516113",
    "siruta": 2078
  },
  {
    "name": "Ruși",
    "zipcode": "516114",
    "siruta": 2087
  },
  {
    "name": "Suseni",
    "zipcode": "516115",
    "siruta": 2096
  },
  {
    "name": "Trâmpoiele",
    "zipcode": "516116",
    "siruta": 2103
  },
  {
    "name": "Valea Mică",
    "zipcode": "516117",
    "siruta": 2112
  },
  {
    "name": "Vâltori (Zlatna)",
    "zipcode": "516118",
    "siruta": 2121
  },
  {
    "name": "Albac",
    "zipcode": "517005",
    "siruta": 2149
  },
  {
    "name": "Bărăști",
    "zipcode": "517006",
    "siruta": 2158
  },
  {
    "name": "Budăiești",
    "zipcode": "517007",
    "siruta": 2167
  },
  {
    "name": "Cionești",
    "zipcode": "517008",
    "siruta": 2176
  },
  {
    "name": "Costești (Albac)",
    "zipcode": "517009",
    "siruta": 2185
  },
  {
    "name": "Dealu Lămășoi",
    "zipcode": "517011",
    "siruta": 2194
  },
  {
    "name": "Deve",
    "zipcode": "517012",
    "siruta": 2201
  },
  {
    "name": "După Pleșe",
    "zipcode": "517013",
    "siruta": 2210
  },
  {
    "name": "Fața",
    "zipcode": "517014",
    "siruta": 2229
  },
  {
    "name": "Pleșești",
    "zipcode": "517016",
    "siruta": 2238
  },
  {
    "name": "Potionci",
    "zipcode": "517017",
    "siruta": 2247
  },
  {
    "name": "Rogoz",
    "zipcode": "517018",
    "siruta": 2256
  },
  {
    "name": "Roșești",
    "zipcode": "517019",
    "siruta": 2265
  },
  {
    "name": "Rusești",
    "zipcode": "517021",
    "siruta": 2274
  },
  {
    "name": "Sohodol (Albac)",
    "zipcode": "517022",
    "siruta": 2283
  },
  {
    "name": "Tamborești",
    "zipcode": "517023",
    "siruta": 2292
  },
  {
    "name": "Almașu Mare",
    "zipcode": "517030",
    "siruta": 2318
  },
  {
    "name": "Almașu de Mijloc",
    "zipcode": "517031",
    "siruta": 2327
  },
  {
    "name": "Brădet",
    "zipcode": "517032",
    "siruta": 2336
  },
  {
    "name": "Cheile Cibului",
    "zipcode": "517033",
    "siruta": 2345
  },
  {
    "name": "Cib",
    "zipcode": "517034",
    "siruta": 2354
  },
  {
    "name": "Glod",
    "zipcode": "517036",
    "siruta": 2363
  },
  {
    "name": "Haneș Mină",
    "zipcode": "517037",
    "siruta": 2309
  },
  {
    "name": "Nădăștia",
    "zipcode": "517038",
    "siruta": 2372
  },
  {
    "name": "Arieșeni",
    "zipcode": "517040",
    "siruta": 2390
  },
  {
    "name": "Avrămești (Arieșeni)",
    "zipcode": "517041",
    "siruta": 2407
  },
  {
    "name": "Bubești",
    "zipcode": "517042",
    "siruta": 2416
  },
  {
    "name": "Casa de Piatră",
    "zipcode": "517043",
    "siruta": 2425
  },
  {
    "name": "Cobleș",
    "zipcode": "517044",
    "siruta": 2434
  },
  {
    "name": "Dealu Bajului",
    "zipcode": "517046",
    "siruta": 2443
  },
  {
    "name": "Fața Cristesei",
    "zipcode": "517047",
    "siruta": 2452
  },
  {
    "name": "Fața Lăpușului",
    "zipcode": "517048",
    "siruta": 2461
  },
  {
    "name": "Galbena",
    "zipcode": "517049",
    "siruta": 2470
  },
  {
    "name": "Hodobana",
    "zipcode": "517051",
    "siruta": 2489
  },
  {
    "name": "Izlaz",
    "zipcode": "517052",
    "siruta": 2498
  },
  {
    "name": "Păntești",
    "zipcode": "517053",
    "siruta": 2504
  },
  {
    "name": "Pătrăhăițești",
    "zipcode": "517054",
    "siruta": 2513
  },
  {
    "name": "Poienița (Arieșeni)",
    "zipcode": "517056",
    "siruta": 2522
  },
  {
    "name": "Ravicești",
    "zipcode": "517057",
    "siruta": 2531
  },
  {
    "name": "Sturu",
    "zipcode": "517058",
    "siruta": 2540
  },
  {
    "name": "Ștei-Arieșeni",
    "zipcode": "517059",
    "siruta": 2559
  },
  {
    "name": "Vanvucești",
    "zipcode": "517061",
    "siruta": 2568
  },
  {
    "name": "Avram Iancu",
    "zipcode": "517065",
    "siruta": 2586
  },
  {
    "name": "Achimețești",
    "zipcode": "517066",
    "siruta": 2595
  },
  {
    "name": "Avrămești (Avram Iancu)",
    "zipcode": "517067",
    "siruta": 2602
  },
  {
    "name": "Bădăi",
    "zipcode": "517068",
    "siruta": 2611
  },
  {
    "name": "Boldești",
    "zipcode": "517069",
    "siruta": 2620
  },
  {
    "name": "Călugărești",
    "zipcode": "517071",
    "siruta": 2639
  },
  {
    "name": "Căsoaia",
    "zipcode": "517072",
    "siruta": 2648
  },
  {
    "name": "Cândești",
    "zipcode": "517073",
    "siruta": 2657
  },
  {
    "name": "Cârăști",
    "zipcode": "517074",
    "siruta": 2666
  },
  {
    "name": "Cârțulești",
    "zipcode": "517076",
    "siruta": 2675
  },
  {
    "name": "Cocești",
    "zipcode": "517077",
    "siruta": 2684
  },
  {
    "name": "Cocoșești",
    "zipcode": "517078",
    "siruta": 2693
  },
  {
    "name": "Coroiești",
    "zipcode": "517079",
    "siruta": 2700
  },
  {
    "name": "Dealu Crișului",
    "zipcode": "517081",
    "siruta": 2719
  },
  {
    "name": "Dolești",
    "zipcode": "517082",
    "siruta": 2728
  },
  {
    "name": "Dumăcești",
    "zipcode": "517083",
    "siruta": 2737
  },
  {
    "name": "Gojeiești",
    "zipcode": "517084",
    "siruta": 2746
  },
  {
    "name": "Helerești",
    "zipcode": "517086",
    "siruta": 2755
  },
  {
    "name": "Incești (Avram Iancu)",
    "zipcode": "517087",
    "siruta": 2764
  },
  {
    "name": "Jojei",
    "zipcode": "517088",
    "siruta": 2773
  },
  {
    "name": "Mărtești",
    "zipcode": "517089",
    "siruta": 2782
  },
  {
    "name": "Orgești",
    "zipcode": "517091",
    "siruta": 2791
  },
  {
    "name": "Pătruțești",
    "zipcode": "517092",
    "siruta": 2808
  },
  {
    "name": "Plai (Avram Iancu)",
    "zipcode": "517093",
    "siruta": 2817
  },
  {
    "name": "Pușelești",
    "zipcode": "517094",
    "siruta": 2826
  },
  {
    "name": "Șoicești",
    "zipcode": "517096",
    "siruta": 2835
  },
  {
    "name": "Ștertești",
    "zipcode": "517097",
    "siruta": 2844
  },
  {
    "name": "Târsa",
    "zipcode": "517098",
    "siruta": 2853
  },
  {
    "name": "Târsa-Plai",
    "zipcode": "517099",
    "siruta": 2862
  },
  {
    "name": "Valea Maciului",
    "zipcode": "517101",
    "siruta": 2871
  },
  {
    "name": "Valea Uțului",
    "zipcode": "517102",
    "siruta": 2880
  },
  {
    "name": "Verdești",
    "zipcode": "517103",
    "siruta": 2899
  },
  {
    "name": "Vidrișoara",
    "zipcode": "517104",
    "siruta": 2906
  },
  {
    "name": "Berghin",
    "zipcode": "517110",
    "siruta": 2997
  },
  {
    "name": "Ghirbom",
    "zipcode": "517111",
    "siruta": 3002
  },
  {
    "name": "Henig",
    "zipcode": "517112",
    "siruta": 3011
  },
  {
    "name": "Straja",
    "zipcode": "517113",
    "siruta": 3020
  },
  {
    "name": "Bistra",
    "zipcode": "517115",
    "siruta": 3048
  },
  {
    "name": "Aronești",
    "zipcode": "517116",
    "siruta": 3057
  },
  {
    "name": "Bălești",
    "zipcode": "517117",
    "siruta": 3066
  },
  {
    "name": "Bălești-Cătun",
    "zipcode": "517118",
    "siruta": 3075
  },
  {
    "name": "Bârlești (Bistra)",
    "zipcode": "517119",
    "siruta": 3084
  },
  {
    "name": "Cheleteni",
    "zipcode": "517121",
    "siruta": 3093
  },
  {
    "name": "Ciuldești",
    "zipcode": "517122",
    "siruta": 3100
  },
  {
    "name": "Crețești",
    "zipcode": "517123",
    "siruta": 3119
  },
  {
    "name": "Dâmbureni",
    "zipcode": "517124",
    "siruta": 3137
  },
  {
    "name": "Dealu Muntelui",
    "zipcode": "517126",
    "siruta": 3128
  },
  {
    "name": "Durăști",
    "zipcode": "517127",
    "siruta": 3146
  },
  {
    "name": "Gănești",
    "zipcode": "517128",
    "siruta": 3155
  },
  {
    "name": "Gârde",
    "zipcode": "517129",
    "siruta": 3164
  },
  {
    "name": "Hodișești",
    "zipcode": "517131",
    "siruta": 3173
  },
  {
    "name": "Hudricești",
    "zipcode": "517132",
    "siruta": 3182
  },
  {
    "name": "Lipaia",
    "zipcode": "517133",
    "siruta": 3191
  },
  {
    "name": "Lunca Largă (Bistra)",
    "zipcode": "517134",
    "siruta": 3208
  },
  {
    "name": "Lunca Merilor",
    "zipcode": "517136",
    "siruta": 3217
  },
  {
    "name": "Mihăiești",
    "zipcode": "517137",
    "siruta": 3226
  },
  {
    "name": "Nămaș",
    "zipcode": "517138",
    "siruta": 3235
  },
  {
    "name": "Novăcești",
    "zipcode": "517139",
    "siruta": 3244
  },
  {
    "name": "Perjești",
    "zipcode": "517141",
    "siruta": 3253
  },
  {
    "name": "Poiana (Bistra)",
    "zipcode": "517142",
    "siruta": 3262
  },
  {
    "name": "Poiu",
    "zipcode": "517143",
    "siruta": 3271
  },
  {
    "name": "Rătitiș",
    "zipcode": "517144",
    "siruta": 3280
  },
  {
    "name": "Runcuri",
    "zipcode": "517146",
    "siruta": 3299
  },
  {
    "name": "Sălăgești",
    "zipcode": "517147",
    "siruta": 3306
  },
  {
    "name": "Ștefanca",
    "zipcode": "517148",
    "siruta": 3315
  },
  {
    "name": "Tolăcești",
    "zipcode": "517149",
    "siruta": 3324
  },
  {
    "name": "Tomnatec",
    "zipcode": "517151",
    "siruta": 3333
  },
  {
    "name": "Trișorești",
    "zipcode": "517152",
    "siruta": 3342
  },
  {
    "name": "Țărănești",
    "zipcode": "517153",
    "siruta": 3351
  },
  {
    "name": "Vârși-Rontu",
    "zipcode": "517154",
    "siruta": 3360
  },
  {
    "name": "Vârșii Mari",
    "zipcode": "517156",
    "siruta": 3379
  },
  {
    "name": "Vârșii Mici",
    "zipcode": "517157",
    "siruta": 3388
  },
  {
    "name": "Blandiana",
    "zipcode": "517160",
    "siruta": 3404
  },
  {
    "name": "Acmariu",
    "zipcode": "517161",
    "siruta": 3413
  },
  {
    "name": "Ibru",
    "zipcode": "517162",
    "siruta": 3422
  },
  {
    "name": "Poieni (Blandiana)",
    "zipcode": "517163",
    "siruta": 3431
  },
  {
    "name": "Răcătău",
    "zipcode": "517164",
    "siruta": 3440
  },
  {
    "name": "Bucium",
    "zipcode": "517165",
    "siruta": 3468
  },
  {
    "name": "Anghelești",
    "zipcode": "517166",
    "siruta": 3477
  },
  {
    "name": "Bisericani",
    "zipcode": "517167",
    "siruta": 3486
  },
  {
    "name": "Bucium-Sat",
    "zipcode": "517168",
    "siruta": 3495
  },
  {
    "name": "Cerbu",
    "zipcode": "517169",
    "siruta": 3501
  },
  {
    "name": "Ciuculești",
    "zipcode": "517171",
    "siruta": 3510
  },
  {
    "name": "Coleșeni",
    "zipcode": "517172",
    "siruta": 3529
  },
  {
    "name": "Dogărești",
    "zipcode": "517173",
    "siruta": 3538
  },
  {
    "name": "Ferești",
    "zipcode": "517174",
    "siruta": 3547
  },
  {
    "name": "Florești (Bucium)",
    "zipcode": "517176",
    "siruta": 3556
  },
  {
    "name": "Gura Izbitei",
    "zipcode": "517177",
    "siruta": 3565
  },
  {
    "name": "Helești",
    "zipcode": "517178",
    "siruta": 3574
  },
  {
    "name": "Izbicioara",
    "zipcode": "517179",
    "siruta": 3583
  },
  {
    "name": "Izbita",
    "zipcode": "517181",
    "siruta": 3592
  },
  {
    "name": "Jurcuiești",
    "zipcode": "517182",
    "siruta": 3609
  },
  {
    "name": "Lupulești",
    "zipcode": "517183",
    "siruta": 3618
  },
  {
    "name": "Măgura (Bucium)",
    "zipcode": "517184",
    "siruta": 3627
  },
  {
    "name": "Muntari",
    "zipcode": "517186",
    "siruta": 3636
  },
  {
    "name": "Petreni",
    "zipcode": "517187",
    "siruta": 3645
  },
  {
    "name": "Poiana (Bucium)",
    "zipcode": "517188",
    "siruta": 3654
  },
  {
    "name": "Poieni (Bucium)",
    "zipcode": "517189",
    "siruta": 3663
  },
  {
    "name": "Stâlnișoara",
    "zipcode": "517191",
    "siruta": 3672
  },
  {
    "name": "Valea Abruzel",
    "zipcode": "517192",
    "siruta": 3681
  },
  {
    "name": "Valea Albă",
    "zipcode": "517193",
    "siruta": 3690
  },
  {
    "name": "Valea Cerbului",
    "zipcode": "517194",
    "siruta": 3707
  },
  {
    "name": "Valea Negrilesii",
    "zipcode": "517196",
    "siruta": 3716
  },
  {
    "name": "Valea Poienii (Bucium)",
    "zipcode": "517197",
    "siruta": 3725
  },
  {
    "name": "Valea Șesii (Bucium)",
    "zipcode": "517198",
    "siruta": 3734
  },
  {
    "name": "Văleni (Bucium)",
    "zipcode": "517199",
    "siruta": 3743
  },
  {
    "name": "Vâlcea",
    "zipcode": "517201",
    "siruta": 3752
  },
  {
    "name": "Câlnic",
    "zipcode": "517205",
    "siruta": 4115
  },
  {
    "name": "Cut",
    "zipcode": "517206",
    "siruta": 4124
  },
  {
    "name": "Deal",
    "zipcode": "517207",
    "siruta": 4133
  },
  {
    "name": "Cenade",
    "zipcode": "517210",
    "siruta": 3770
  },
  {
    "name": "Capu Dealului",
    "zipcode": "517211",
    "siruta": 3789
  },
  {
    "name": "Gorgan",
    "zipcode": "517212",
    "siruta": 3798
  },
  {
    "name": "Cergău",
    "zipcode": "517215",
    "siruta": 3805
  },
  {
    "name": "Cergău Mare",
    "zipcode": "517216",
    "siruta": 3814
  },
  {
    "name": "Cergău Mic",
    "zipcode": "517217",
    "siruta": 3823
  },
  {
    "name": "Lupu",
    "zipcode": "517218",
    "siruta": 3832
  },
  {
    "name": "Ceru-Băcăinți",
    "zipcode": "517220",
    "siruta": 3850
  },
  {
    "name": "Bolovănești",
    "zipcode": "517221",
    "siruta": 3869
  },
  {
    "name": "Bulbuc",
    "zipcode": "517222",
    "siruta": 3878
  },
  {
    "name": "Cucuta",
    "zipcode": "517223",
    "siruta": 3887
  },
  {
    "name": "Curpeni",
    "zipcode": "517224",
    "siruta": 3896
  },
  {
    "name": "Dumbrăvița",
    "zipcode": "517226",
    "siruta": 3903
  },
  {
    "name": "Fântânele",
    "zipcode": "517227",
    "siruta": 3912
  },
  {
    "name": "Groși",
    "zipcode": "517228",
    "siruta": 3921
  },
  {
    "name": "Valea Mare",
    "zipcode": "517229",
    "siruta": 3930
  },
  {
    "name": "Viezuri",
    "zipcode": "517231",
    "siruta": 3949
  },
  {
    "name": "Cetatea de Baltă",
    "zipcode": "517235",
    "siruta": 3967
  },
  {
    "name": "Crăciunelu de Sus",
    "zipcode": "517236",
    "siruta": 3976
  },
  {
    "name": "Sântămărie",
    "zipcode": "517237",
    "siruta": 3985
  },
  {
    "name": "Tătârlaua",
    "zipcode": "517238",
    "siruta": 3994
  },
  {
    "name": "Ciugud",
    "zipcode": "517240",
    "siruta": 1080
  },
  {
    "name": "Drâmbar",
    "zipcode": "517241",
    "siruta": 1099
  },
  {
    "name": "Limba",
    "zipcode": "517242",
    "siruta": 1106
  },
  {
    "name": "Hăpria",
    "zipcode": "517243",
    "siruta": 1115
  },
  {
    "name": "Șeușa",
    "zipcode": "517244",
    "siruta": 1124
  },
  {
    "name": "Teleac",
    "zipcode": "517246",
    "siruta": 1133
  },
  {
    "name": "Ciuruleasa",
    "zipcode": "517250",
    "siruta": 4017
  },
  {
    "name": "Bidigești",
    "zipcode": "517251",
    "siruta": 4026
  },
  {
    "name": "Bodrești",
    "zipcode": "517252",
    "siruta": 4035
  },
  {
    "name": "Boglești",
    "zipcode": "517253",
    "siruta": 4044
  },
  {
    "name": "Buninginea",
    "zipcode": "517254",
    "siruta": 4053
  },
  {
    "name": "Ghedulești",
    "zipcode": "517256",
    "siruta": 4062
  },
  {
    "name": "Mătișești (Ciuruleasa)",
    "zipcode": "517257",
    "siruta": 4071
  },
  {
    "name": "Morărești (Ciuruleasa)",
    "zipcode": "517258",
    "siruta": 4080
  },
  {
    "name": "Vulcan",
    "zipcode": "517259",
    "siruta": 4099
  },
  {
    "name": "Crăciunelu de Jos",
    "zipcode": "517260",
    "siruta": 4197
  },
  {
    "name": "Bucerdea Grânoasă",
    "zipcode": "517261",
    "siruta": 4204
  },
  {
    "name": "Cornu",
    "zipcode": "517262",
    "siruta": 4213
  },
  {
    "name": "Pădure",
    "zipcode": "517263",
    "siruta": 4222
  },
  {
    "name": "Pânca",
    "zipcode": "517264",
    "siruta": 4231
  },
  {
    "name": "Cricău",
    "zipcode": "517265",
    "siruta": 4151
  },
  {
    "name": "Craiva",
    "zipcode": "517266",
    "siruta": 4160
  },
  {
    "name": "Tibru",
    "zipcode": "517267",
    "siruta": 4179
  },
  {
    "name": "Daia Română",
    "zipcode": "517270",
    "siruta": 4259
  },
  {
    "name": "Doștat",
    "zipcode": "517275",
    "siruta": 4277
  },
  {
    "name": "Boz",
    "zipcode": "517276",
    "siruta": 4286
  },
  {
    "name": "Dealu Doștatului",
    "zipcode": "517277",
    "siruta": 4295
  },
  {
    "name": "Fărău",
    "zipcode": "517280",
    "siruta": 4311
  },
  {
    "name": "Heria",
    "zipcode": "517281",
    "siruta": 4320
  },
  {
    "name": "Medveș",
    "zipcode": "517282",
    "siruta": 4339
  },
  {
    "name": "Sânbenedic",
    "zipcode": "517283",
    "siruta": 4348
  },
  {
    "name": "Șilea",
    "zipcode": "517284",
    "siruta": 4357
  },
  {
    "name": "Galda de Jos",
    "zipcode": "517285",
    "siruta": 4375
  },
  {
    "name": "Benic",
    "zipcode": "517286",
    "siruta": 4384
  },
  {
    "name": "Cetea",
    "zipcode": "517287",
    "siruta": 4393
  },
  {
    "name": "Galda de Sus",
    "zipcode": "517288",
    "siruta": 4400
  },
  {
    "name": "Lupșeni",
    "zipcode": "517289",
    "siruta": 4419
  },
  {
    "name": "Măgura (Galda de Jos)",
    "zipcode": "517291",
    "siruta": 4428
  },
  {
    "name": "Mesentea",
    "zipcode": "517292",
    "siruta": 4437
  },
  {
    "name": "Oiejdea",
    "zipcode": "517293",
    "siruta": 4446
  },
  {
    "name": "Poiana Galdei",
    "zipcode": "517294",
    "siruta": 4455
  },
  {
    "name": "Răicani",
    "zipcode": "517296",
    "siruta": 4464
  },
  {
    "name": "Zăgriș",
    "zipcode": "517297",
    "siruta": 4473
  },
  {
    "name": "Gârbova",
    "zipcode": "517305",
    "siruta": 4491
  },
  {
    "name": "Cărpiniș (Gârbova)",
    "zipcode": "517306",
    "siruta": 4507
  },
  {
    "name": "Reciu",
    "zipcode": "517307",
    "siruta": 4516
  },
  {
    "name": "Gârda de Sus",
    "zipcode": "517310",
    "siruta": 4534
  },
  {
    "name": "Biharia",
    "zipcode": "517311",
    "siruta": 4543
  },
  {
    "name": "Dealu Frumos (Gârda de Sus)",
    "zipcode": "517312",
    "siruta": 4552
  },
  {
    "name": "Dealu Ordâncușii",
    "zipcode": "517313",
    "siruta": 4561
  },
  {
    "name": "Dobrești",
    "zipcode": "517314",
    "siruta": 4570
  },
  {
    "name": "Gârda Seacă",
    "zipcode": "517316",
    "siruta": 4598
  },
  {
    "name": "Ghețari",
    "zipcode": "517317",
    "siruta": 4589
  },
  {
    "name": "Hănășești (Gârda de Sus)",
    "zipcode": "517318",
    "siruta": 4605
  },
  {
    "name": "Huzărești",
    "zipcode": "517319",
    "siruta": 4614
  },
  {
    "name": "Izvoarele (Gârda de Sus)",
    "zipcode": "517321",
    "siruta": 4623
  },
  {
    "name": "Munună",
    "zipcode": "517322",
    "siruta": 4632
  },
  {
    "name": "Ocoale",
    "zipcode": "517323",
    "siruta": 4641
  },
  {
    "name": "Plai (Gârda de Sus)",
    "zipcode": "517324",
    "siruta": 4650
  },
  {
    "name": "Pliști",
    "zipcode": "517326",
    "siruta": 4669
  },
  {
    "name": "Scoarța",
    "zipcode": "517327",
    "siruta": 4678
  },
  {
    "name": "Snide",
    "zipcode": "517328",
    "siruta": 4696
  },
  {
    "name": "Sucești",
    "zipcode": "517329",
    "siruta": 4687
  },
  {
    "name": "Hopârta",
    "zipcode": "517335",
    "siruta": 4712
  },
  {
    "name": "Silivaș",
    "zipcode": "517336",
    "siruta": 4721
  },
  {
    "name": "Șpălnaca",
    "zipcode": "517337",
    "siruta": 4730
  },
  {
    "name": "Turdaș",
    "zipcode": "517338",
    "siruta": 4749
  },
  {
    "name": "Vama Seacă",
    "zipcode": "517339",
    "siruta": 4758
  },
  {
    "name": "Horea",
    "zipcode": "517340",
    "siruta": 4776
  },
  {
    "name": "Baba",
    "zipcode": "517341",
    "siruta": 4785
  },
  {
    "name": "Butești (Horea)",
    "zipcode": "517342",
    "siruta": 4794
  },
  {
    "name": "Dârlești",
    "zipcode": "517343",
    "siruta": 4801
  },
  {
    "name": "Fericet",
    "zipcode": "517344",
    "siruta": 4810
  },
  {
    "name": "Giurgiuț",
    "zipcode": "517346",
    "siruta": 4829
  },
  {
    "name": "Măncești",
    "zipcode": "517347",
    "siruta": 4838
  },
  {
    "name": "Mătișești (Horea)",
    "zipcode": "517348",
    "siruta": 4847
  },
  {
    "name": "Niculești",
    "zipcode": "517349",
    "siruta": 4856
  },
  {
    "name": "Pătrușești",
    "zipcode": "517351",
    "siruta": 4865
  },
  {
    "name": "Petreasa",
    "zipcode": "517352",
    "siruta": 4874
  },
  {
    "name": "Preluca",
    "zipcode": "517353",
    "siruta": 4883
  },
  {
    "name": "Teiu",
    "zipcode": "517354",
    "siruta": 4892
  },
  {
    "name": "Trifești (Horea)",
    "zipcode": "517356",
    "siruta": 4909
  },
  {
    "name": "Zânzești",
    "zipcode": "517357",
    "siruta": 4918
  },
  {
    "name": "Ighiu",
    "zipcode": "517360",
    "siruta": 4936
  },
  {
    "name": "Bucerdea Vinoasă",
    "zipcode": "517361",
    "siruta": 4945
  },
  {
    "name": "Ighiel",
    "zipcode": "517362",
    "siruta": 4954
  },
  {
    "name": "Șard",
    "zipcode": "517363",
    "siruta": 4963
  },
  {
    "name": "Țelna",
    "zipcode": "517364",
    "siruta": 4972
  },
  {
    "name": "Întregalde",
    "zipcode": "517365",
    "siruta": 4990
  },
  {
    "name": "Dealu Geoagiului",
    "zipcode": "517366",
    "siruta": 5005
  },
  {
    "name": "Ghioncani",
    "zipcode": "517367",
    "siruta": 5014
  },
  {
    "name": "Iliești",
    "zipcode": "517368",
    "siruta": 5023
  },
  {
    "name": "Ivăniș",
    "zipcode": "517369",
    "siruta": 5032
  },
  {
    "name": "Mărinești",
    "zipcode": "517371",
    "siruta": 5041
  },
  {
    "name": "Modolești (Întregalde)",
    "zipcode": "517372",
    "siruta": 5050
  },
  {
    "name": "Necrilești",
    "zipcode": "517373",
    "siruta": 5069
  },
  {
    "name": "Popești",
    "zipcode": "517374",
    "siruta": 5078
  },
  {
    "name": "Sfârcea",
    "zipcode": "517376",
    "siruta": 5087
  },
  {
    "name": "Tecșești",
    "zipcode": "517377",
    "siruta": 5096
  },
  {
    "name": "Jidvei",
    "zipcode": "517385",
    "siruta": 5112
  },
  {
    "name": "Bălcaciu",
    "zipcode": "517386",
    "siruta": 5121
  },
  {
    "name": "Căpâlna de Jos",
    "zipcode": "517387",
    "siruta": 5130
  },
  {
    "name": "Feisa",
    "zipcode": "517388",
    "siruta": 5149
  },
  {
    "name": "Veseuș",
    "zipcode": "517389",
    "siruta": 5158
  },
  {
    "name": "Livezile",
    "zipcode": "517390",
    "siruta": 5176
  },
  {
    "name": "Izvoarele (Livezile)",
    "zipcode": "517391",
    "siruta": 5185
  },
  {
    "name": "Poiana Aiudului",
    "zipcode": "517392",
    "siruta": 5194
  },
  {
    "name": "Vălișoara",
    "zipcode": "517393",
    "siruta": 5201
  },
  {
    "name": "Lopadea Nouă",
    "zipcode": "517395",
    "siruta": 5229
  },
  {
    "name": "Asinip",
    "zipcode": "517396",
    "siruta": 5238
  },
  {
    "name": "Băgău",
    "zipcode": "517397",
    "siruta": 5256
  },
  {
    "name": "Beța",
    "zipcode": "517398",
    "siruta": 5247
  },
  {
    "name": "Cicârd",
    "zipcode": "517399",
    "siruta": 5265
  },
  {
    "name": "Ciuguzel",
    "zipcode": "517401",
    "siruta": 5274
  },
  {
    "name": "Ocnișoara",
    "zipcode": "517402",
    "siruta": 5283
  },
  {
    "name": "Odverem",
    "zipcode": "517403",
    "siruta": 5292
  },
  {
    "name": "Lunca Mureșului",
    "zipcode": "517405",
    "siruta": 5318
  },
  {
    "name": "Gura Arieșului",
    "zipcode": "517406",
    "siruta": 5327
  },
  {
    "name": "Lupșa",
    "zipcode": "517410",
    "siruta": 5345
  },
  {
    "name": "Bârdești",
    "zipcode": "517411",
    "siruta": 5354
  },
  {
    "name": "Bârzan",
    "zipcode": "517412",
    "siruta": 5363
  },
  {
    "name": "Curmătură",
    "zipcode": "517413",
    "siruta": 5372
  },
  {
    "name": "După Deal (Lupșa)",
    "zipcode": "517414",
    "siruta": 5381
  },
  {
    "name": "Geamăna",
    "zipcode": "517416",
    "siruta": 5390
  },
  {
    "name": "Hădărău",
    "zipcode": "517417",
    "siruta": 5407
  },
  {
    "name": "Holobani",
    "zipcode": "517418",
    "siruta": 5416
  },
  {
    "name": "Lazuri (Lupșa)",
    "zipcode": "517419",
    "siruta": 5425
  },
  {
    "name": "Lunca (Lupșa)",
    "zipcode": "517421",
    "siruta": 5434
  },
  {
    "name": "Mănăstire",
    "zipcode": "517422",
    "siruta": 5443
  },
  {
    "name": "Mărgaia",
    "zipcode": "517423",
    "siruta": 5452
  },
  {
    "name": "Mușca",
    "zipcode": "517424",
    "siruta": 5461
  },
  {
    "name": "Pârâu-Cărbunări",
    "zipcode": "517426",
    "siruta": 5489
  },
  {
    "name": "Pițiga",
    "zipcode": "517427",
    "siruta": 5470
  },
  {
    "name": "Poșogani",
    "zipcode": "517428",
    "siruta": 5498
  },
  {
    "name": "Șasa",
    "zipcode": "517429",
    "siruta": 5504
  },
  {
    "name": "Trifești (Lupșa)",
    "zipcode": "517431",
    "siruta": 5513
  },
  {
    "name": "Valea Holhorii",
    "zipcode": "517432",
    "siruta": 5522
  },
  {
    "name": "Valea Lupșii",
    "zipcode": "517433",
    "siruta": 5531
  },
  {
    "name": "Valea Șesii (Lupșa)",
    "zipcode": "517434",
    "siruta": 5540
  },
  {
    "name": "Văi",
    "zipcode": "517436",
    "siruta": 5559
  },
  {
    "name": "Vința",
    "zipcode": "517437",
    "siruta": 5568
  },
  {
    "name": "Meteș",
    "zipcode": "517445",
    "siruta": 5586
  },
  {
    "name": "Ampoița",
    "zipcode": "517446",
    "siruta": 5595
  },
  {
    "name": "Isca",
    "zipcode": "517447",
    "siruta": 5602
  },
  {
    "name": "Lunca Ampoiței",
    "zipcode": "517448",
    "siruta": 5611
  },
  {
    "name": "Lunca Meteșului",
    "zipcode": "517449",
    "siruta": 5620
  },
  {
    "name": "Pădurea",
    "zipcode": "517451",
    "siruta": 5639
  },
  {
    "name": "Poiana Ampoiului",
    "zipcode": "517452",
    "siruta": 5648
  },
  {
    "name": "Poiana Ursului",
    "zipcode": "517453",
    "siruta": 5657
  },
  {
    "name": "Presaca Ampoiului",
    "zipcode": "517454",
    "siruta": 5666
  },
  {
    "name": "Remetea",
    "zipcode": "517456",
    "siruta": 5675
  },
  {
    "name": "Tăuți",
    "zipcode": "517457",
    "siruta": 5684
  },
  {
    "name": "Văleni (Meteș)",
    "zipcode": "517458",
    "siruta": 5693
  },
  {
    "name": "Mihalț",
    "zipcode": "517465",
    "siruta": 5719
  },
  {
    "name": "Cistei",
    "zipcode": "517466",
    "siruta": 5728
  },
  {
    "name": "Obreja",
    "zipcode": "517467",
    "siruta": 5737
  },
  {
    "name": "Zărieș",
    "zipcode": "517468",
    "siruta": 5746
  },
  {
    "name": "Mirăslău",
    "zipcode": "517470",
    "siruta": 5764
  },
  {
    "name": "Cicău",
    "zipcode": "517471",
    "siruta": 5773
  },
  {
    "name": "Decea",
    "zipcode": "517472",
    "siruta": 5782
  },
  {
    "name": "Lopadea Veche",
    "zipcode": "517473",
    "siruta": 5791
  },
  {
    "name": "Ormeniș",
    "zipcode": "517474",
    "siruta": 5808
  },
  {
    "name": "Rachiș",
    "zipcode": "517476",
    "siruta": 5817
  },
  {
    "name": "Mogoș",
    "zipcode": "517480",
    "siruta": 5835
  },
  {
    "name": "Bărbești",
    "zipcode": "517481",
    "siruta": 5844
  },
  {
    "name": "Bârlești (Mogoș)",
    "zipcode": "517482",
    "siruta": 5853
  },
  {
    "name": "Bârlești-Cătun",
    "zipcode": "517483",
    "siruta": 5862
  },
  {
    "name": "Bârzogani",
    "zipcode": "517484",
    "siruta": 5871
  },
  {
    "name": "Bocești",
    "zipcode": "517486",
    "siruta": 5880
  },
  {
    "name": "Bogdănești (Mogoș)",
    "zipcode": "517487",
    "siruta": 5899
  },
  {
    "name": "Butești (Mogoș)",
    "zipcode": "517488",
    "siruta": 5906
  },
  {
    "name": "Cojocani",
    "zipcode": "517489",
    "siruta": 5915
  },
  {
    "name": "Cristești",
    "zipcode": "517491",
    "siruta": 5924
  },
  {
    "name": "Mămăligani",
    "zipcode": "517492",
    "siruta": 5933
  },
  {
    "name": "Negrești",
    "zipcode": "517493",
    "siruta": 5942
  },
  {
    "name": "Oncești",
    "zipcode": "517494",
    "siruta": 5951
  },
  {
    "name": "Poienile-Mogoș",
    "zipcode": "517496",
    "siruta": 5960
  },
  {
    "name": "Tomești",
    "zipcode": "517497",
    "siruta": 5979
  },
  {
    "name": "Valea Barnii",
    "zipcode": "517498",
    "siruta": 5997
  },
  {
    "name": "Valea Bârluțești",
    "zipcode": "517499",
    "siruta": 5988
  },
  {
    "name": "Valea Cocești",
    "zipcode": "517501",
    "siruta": 6002
  },
  {
    "name": "Valea Giogești",
    "zipcode": "517502",
    "siruta": 6011
  },
  {
    "name": "Valea Mlacii",
    "zipcode": "517503",
    "siruta": 6020
  },
  {
    "name": "Valea Țupilor",
    "zipcode": "517504",
    "siruta": 6039
  },
  {
    "name": "Noșlac",
    "zipcode": "517515",
    "siruta": 6057
  },
  {
    "name": "Căptălan",
    "zipcode": "517516",
    "siruta": 6066
  },
  {
    "name": "Copand",
    "zipcode": "517517",
    "siruta": 6075
  },
  {
    "name": "Găbud",
    "zipcode": "517518",
    "siruta": 6084
  },
  {
    "name": "Stâna de Mureș",
    "zipcode": "517519",
    "siruta": 6093
  },
  {
    "name": "Valea Ciuciului",
    "zipcode": "517521",
    "siruta": 6100
  },
  {
    "name": "Ocoliș",
    "zipcode": "517525",
    "siruta": 6128
  },
  {
    "name": "Lunca Largă (Ocoliș)",
    "zipcode": "517526",
    "siruta": 6137
  },
  {
    "name": "Runc (Ocoliș)",
    "zipcode": "517527",
    "siruta": 6146
  },
  {
    "name": "Vidolm",
    "zipcode": "517528",
    "siruta": 6155
  },
  {
    "name": "Ohaba",
    "zipcode": "517530",
    "siruta": 6173
  },
  {
    "name": "Colibi",
    "zipcode": "517531",
    "siruta": 6182
  },
  {
    "name": "Măghierat",
    "zipcode": "517532",
    "siruta": 6191
  },
  {
    "name": "Secășel",
    "zipcode": "517533",
    "siruta": 6208
  },
  {
    "name": "Pianu",
    "zipcode": "517535",
    "siruta": 6217
  },
  {
    "name": "Pianu de Jos",
    "zipcode": "517536",
    "siruta": 6235
  },
  {
    "name": "Pianu de Sus",
    "zipcode": "517537",
    "siruta": 6226
  },
  {
    "name": "Plaiuri",
    "zipcode": "517538",
    "siruta": 6244
  },
  {
    "name": "Purcăreți",
    "zipcode": "517539",
    "siruta": 6253
  },
  {
    "name": "Strungari",
    "zipcode": "517541",
    "siruta": 6262
  },
  {
    "name": "Poiana Vadului",
    "zipcode": "517545",
    "siruta": 6280
  },
  {
    "name": "Costești (Poiana Vadului)",
    "zipcode": "517546",
    "siruta": 6299
  },
  {
    "name": "Duduieni",
    "zipcode": "517547",
    "siruta": 6306
  },
  {
    "name": "Făgetu de Jos",
    "zipcode": "517548",
    "siruta": 6315
  },
  {
    "name": "Făgetu de Sus",
    "zipcode": "517549",
    "siruta": 6324
  },
  {
    "name": "Hănășești (Poiana Vadului)",
    "zipcode": "517551",
    "siruta": 6333
  },
  {
    "name": "Lupăiești",
    "zipcode": "517552",
    "siruta": 6342
  },
  {
    "name": "Morcănești",
    "zipcode": "517553",
    "siruta": 6351
  },
  {
    "name": "Păștești",
    "zipcode": "517554",
    "siruta": 6360
  },
  {
    "name": "Petelei",
    "zipcode": "517556",
    "siruta": 6379
  },
  {
    "name": "Stănești",
    "zipcode": "517557",
    "siruta": 6388
  },
  {
    "name": "Ponor",
    "zipcode": "517565",
    "siruta": 6404
  },
  {
    "name": "După Deal (Ponor)",
    "zipcode": "517566",
    "siruta": 6413
  },
  {
    "name": "Geogel",
    "zipcode": "517567",
    "siruta": 6422
  },
  {
    "name": "Măcărești",
    "zipcode": "517568",
    "siruta": 6431
  },
  {
    "name": "Vale în Jos",
    "zipcode": "517569",
    "siruta": 6459
  },
  {
    "name": "Valea Bucurului",
    "zipcode": "517571",
    "siruta": 6440
  },
  {
    "name": "Poșaga",
    "zipcode": "517575",
    "siruta": 6468
  },
  {
    "name": "Corțești",
    "zipcode": "517576",
    "siruta": 6486
  },
  {
    "name": "Incești (Poșaga)",
    "zipcode": "517577",
    "siruta": 6495
  },
  {
    "name": "Lunca (Poșaga)",
    "zipcode": "517578",
    "siruta": 6501
  },
  {
    "name": "Orăști",
    "zipcode": "517579",
    "siruta": 6510
  },
  {
    "name": "Poșaga de Jos",
    "zipcode": "517581",
    "siruta": 6477
  },
  {
    "name": "Poșaga de Sus",
    "zipcode": "517582",
    "siruta": 6529
  },
  {
    "name": "Săgagea",
    "zipcode": "517583",
    "siruta": 6538
  },
  {
    "name": "Rădești",
    "zipcode": "517585",
    "siruta": 6556
  },
  {
    "name": "Leorinț",
    "zipcode": "517586",
    "siruta": 6565
  },
  {
    "name": "Meșcreac",
    "zipcode": "517587",
    "siruta": 6574
  },
  {
    "name": "Șoimuș",
    "zipcode": "517588",
    "siruta": 6583
  },
  {
    "name": "Râmeț",
    "zipcode": "517590",
    "siruta": 6636
  },
  {
    "name": "Boțani",
    "zipcode": "517591",
    "siruta": 6645
  },
  {
    "name": "Brădești",
    "zipcode": "517592",
    "siruta": 6654
  },
  {
    "name": "Cheia",
    "zipcode": "517593",
    "siruta": 6663
  },
  {
    "name": "Cotorăști",
    "zipcode": "517594",
    "siruta": 6672
  },
  {
    "name": "Florești (Râmeț)",
    "zipcode": "517596",
    "siruta": 6681
  },
  {
    "name": "Olteni",
    "zipcode": "517597",
    "siruta": 6690
  },
  {
    "name": "Valea Făgetului",
    "zipcode": "517598",
    "siruta": 6707
  },
  {
    "name": "Valea Inzelului",
    "zipcode": "517599",
    "siruta": 6716
  },
  {
    "name": "Valea Mănăstirii",
    "zipcode": "517601",
    "siruta": 6725
  },
  {
    "name": "Valea Poienii (Râmeț)",
    "zipcode": "517602",
    "siruta": 6734
  },
  {
    "name": "Valea Uzei",
    "zipcode": "517603",
    "siruta": 6743
  },
  {
    "name": "Vlădești",
    "zipcode": "517604",
    "siruta": 6752
  },
  {
    "name": "Rimetea",
    "zipcode": "517610",
    "siruta": 6609
  },
  {
    "name": "Colțești",
    "zipcode": "517611",
    "siruta": 6618
  },
  {
    "name": "Roșia Montană",
    "zipcode": "517615",
    "siruta": 6770
  },
  {
    "name": "Bălmoșești",
    "zipcode": "517616",
    "siruta": 6789
  },
  {
    "name": "Blidești",
    "zipcode": "517617",
    "siruta": 6798
  },
  {
    "name": "Bunta",
    "zipcode": "517618",
    "siruta": 6805
  },
  {
    "name": "Cărpiniș (Roșia Montană)",
    "zipcode": "517619",
    "siruta": 6814
  },
  {
    "name": "Coasta Henții",
    "zipcode": "517621",
    "siruta": 6823
  },
  {
    "name": "Corna",
    "zipcode": "517622",
    "siruta": 6832
  },
  {
    "name": "Curături",
    "zipcode": "517623",
    "siruta": 6841
  },
  {
    "name": "Dăroaia",
    "zipcode": "517624",
    "siruta": 6850
  },
  {
    "name": "Gârda-Bărbulești",
    "zipcode": "517626",
    "siruta": 6869
  },
  {
    "name": "Gura Roșiei",
    "zipcode": "517627",
    "siruta": 6878
  },
  {
    "name": "Iacobești",
    "zipcode": "517628",
    "siruta": 6887
  },
  {
    "name": "Ignățești",
    "zipcode": "517629",
    "siruta": 6896
  },
  {
    "name": "Șoal",
    "zipcode": "517631",
    "siruta": 6903
  },
  {
    "name": "Țarina",
    "zipcode": "517632",
    "siruta": 6912
  },
  {
    "name": "Vârtop",
    "zipcode": "517633",
    "siruta": 6921
  },
  {
    "name": "Roșia de Secaș",
    "zipcode": "517640",
    "siruta": 6949
  },
  {
    "name": "Tău",
    "zipcode": "517641",
    "siruta": 6958
  },
  {
    "name": "Ungurei",
    "zipcode": "517642",
    "siruta": 6967
  },
  {
    "name": "Sălciua",
    "zipcode": "517645",
    "siruta": 6976
  },
  {
    "name": "Dealu Caselor",
    "zipcode": "517646",
    "siruta": 6994
  },
  {
    "name": "Dumești",
    "zipcode": "517647",
    "siruta": 7008
  },
  {
    "name": "Sălciua de Jos",
    "zipcode": "517648",
    "siruta": 6985
  },
  {
    "name": "Sălciua de Sus",
    "zipcode": "517649",
    "siruta": 7017
  },
  {
    "name": "Sub Piatră",
    "zipcode": "517651",
    "siruta": 7026
  },
  {
    "name": "Valea Largă",
    "zipcode": "517652",
    "siruta": 7035
  },
  {
    "name": "Săliștea",
    "zipcode": "517655",
    "siruta": 7053
  },
  {
    "name": "Mărgineni",
    "zipcode": "517656",
    "siruta": 7062
  },
  {
    "name": "Săliștea-Deal",
    "zipcode": "517657",
    "siruta": 7071
  },
  {
    "name": "Tărtăria",
    "zipcode": "517658",
    "siruta": 7080
  },
  {
    "name": "Săsciori",
    "zipcode": "517660",
    "siruta": 7106
  },
  {
    "name": "Căpâlna",
    "zipcode": "517661",
    "siruta": 7115
  },
  {
    "name": "Dumbrava (Săsciori)",
    "zipcode": "517662",
    "siruta": 7124
  },
  {
    "name": "Laz (Săsciori)",
    "zipcode": "517663",
    "siruta": 7133
  },
  {
    "name": "Loman",
    "zipcode": "517664",
    "siruta": 7142
  },
  {
    "name": "Pleși",
    "zipcode": "517666",
    "siruta": 7151
  },
  {
    "name": "Răchita",
    "zipcode": "517667",
    "siruta": 7160
  },
  {
    "name": "Sebeșel",
    "zipcode": "517668",
    "siruta": 7179
  },
  {
    "name": "Tonea",
    "zipcode": "517669",
    "siruta": 7188
  },
  {
    "name": "Sâncel",
    "zipcode": "517670",
    "siruta": 7357
  },
  {
    "name": "Iclod",
    "zipcode": "517671",
    "siruta": 7366
  },
  {
    "name": "Pănade",
    "zipcode": "517672",
    "siruta": 7375
  },
  {
    "name": "Sântimbru",
    "zipcode": "517675",
    "siruta": 7393
  },
  {
    "name": "Coșlariu",
    "zipcode": "517676",
    "siruta": 7400
  },
  {
    "name": "Dumitra",
    "zipcode": "517677",
    "siruta": 7419
  },
  {
    "name": "Galtiu",
    "zipcode": "517678",
    "siruta": 7428
  },
  {
    "name": "Totoi",
    "zipcode": "517679",
    "siruta": 7437
  },
  {
    "name": "Scărișoara",
    "zipcode": "517680",
    "siruta": 7204
  },
  {
    "name": "Bârlești (Scărișoara)",
    "zipcode": "517681",
    "siruta": 7213
  },
  {
    "name": "Botești (Scărișoara)",
    "zipcode": "517682",
    "siruta": 7222
  },
  {
    "name": "Fața-Lăzești",
    "zipcode": "517683",
    "siruta": 7231
  },
  {
    "name": "Florești (Scărișoara)",
    "zipcode": "517684",
    "siruta": 7240
  },
  {
    "name": "Lăzești (Scărișoara)",
    "zipcode": "517686",
    "siruta": 7259
  },
  {
    "name": "Lespezea",
    "zipcode": "517687",
    "siruta": 7268
  },
  {
    "name": "Maței",
    "zipcode": "517688",
    "siruta": 7277
  },
  {
    "name": "Negești",
    "zipcode": "517689",
    "siruta": 7286
  },
  {
    "name": "Prelucă",
    "zipcode": "517691",
    "siruta": 7295
  },
  {
    "name": "Runc (Scărișoara)",
    "zipcode": "517692",
    "siruta": 7302
  },
  {
    "name": "Sfoartea",
    "zipcode": "517693",
    "siruta": 7311
  },
  {
    "name": "Știuleți",
    "zipcode": "517694",
    "siruta": 7320
  },
  {
    "name": "Trâncești",
    "zipcode": "517696",
    "siruta": 7339
  },
  {
    "name": "Sohodol",
    "zipcode": "517700",
    "siruta": 7455
  },
  {
    "name": "Băzești",
    "zipcode": "517701",
    "siruta": 7464
  },
  {
    "name": "Bilănești",
    "zipcode": "517702",
    "siruta": 7473
  },
  {
    "name": "Bobărești (Sohodol)",
    "zipcode": "517703",
    "siruta": 7482
  },
  {
    "name": "Brădeana",
    "zipcode": "517704",
    "siruta": 7491
  },
  {
    "name": "Burzonești",
    "zipcode": "517706",
    "siruta": 7507
  },
  {
    "name": "Deoncești",
    "zipcode": "517707",
    "siruta": 7516
  },
  {
    "name": "Dilimani",
    "zipcode": "517708",
    "siruta": 7525
  },
  {
    "name": "Furduiești (Sohodol)",
    "zipcode": "517709",
    "siruta": 7534
  },
  {
    "name": "Gura Sohodol",
    "zipcode": "517711",
    "siruta": 7543
  },
  {
    "name": "Hoancă (Sohodol)",
    "zipcode": "517712",
    "siruta": 7552
  },
  {
    "name": "Joldișești",
    "zipcode": "517713",
    "siruta": 7561
  },
  {
    "name": "Lazuri (Sohodol)",
    "zipcode": "517714",
    "siruta": 7570
  },
  {
    "name": "Lehești",
    "zipcode": "517716",
    "siruta": 7589
  },
  {
    "name": "Luminești",
    "zipcode": "517717",
    "siruta": 7598
  },
  {
    "name": "Medrești",
    "zipcode": "517718",
    "siruta": 7605
  },
  {
    "name": "Morărești (Sohodol)",
    "zipcode": "517719",
    "siruta": 7614
  },
  {
    "name": "Munești",
    "zipcode": "517721",
    "siruta": 7623
  },
  {
    "name": "Năpăiești",
    "zipcode": "517722",
    "siruta": 7632
  },
  {
    "name": "Nelegești",
    "zipcode": "517723",
    "siruta": 7641
  },
  {
    "name": "Nicorești",
    "zipcode": "517724",
    "siruta": 7650
  },
  {
    "name": "Peleș",
    "zipcode": "517726",
    "siruta": 7669
  },
  {
    "name": "Poiana (Sohodol)",
    "zipcode": "517727",
    "siruta": 7678
  },
  {
    "name": "Robești",
    "zipcode": "517728",
    "siruta": 7687
  },
  {
    "name": "Sebișești",
    "zipcode": "517729",
    "siruta": 7712
  },
  {
    "name": "Sicoiești",
    "zipcode": "517731",
    "siruta": 7696
  },
  {
    "name": "Surdești",
    "zipcode": "517732",
    "siruta": 7703
  },
  {
    "name": "Șimocești",
    "zipcode": "517733",
    "siruta": 7721
  },
  {
    "name": "Țoci",
    "zipcode": "517734",
    "siruta": 7730
  },
  {
    "name": "Valea Verde",
    "zipcode": "517736",
    "siruta": 7749
  },
  {
    "name": "Vlădoșești",
    "zipcode": "517737",
    "siruta": 7758
  },
  {
    "name": "Stremț",
    "zipcode": "517745",
    "siruta": 7776
  },
  {
    "name": "Fața Pietrii",
    "zipcode": "517746",
    "siruta": 7785
  },
  {
    "name": "Geoagiu de Sus",
    "zipcode": "517747",
    "siruta": 7794
  },
  {
    "name": "Geomal",
    "zipcode": "517748",
    "siruta": 7801
  },
  {
    "name": "Șibot",
    "zipcode": "517750",
    "siruta": 7829
  },
  {
    "name": "Balomiru de Câmp",
    "zipcode": "517751",
    "siruta": 7838
  },
  {
    "name": "Băcăinți",
    "zipcode": "517752",
    "siruta": 7847
  },
  {
    "name": "Sărăcsău",
    "zipcode": "517753",
    "siruta": 7856
  },
  {
    "name": "Șona",
    "zipcode": "517755",
    "siruta": 7874
  },
  {
    "name": "Alecuș",
    "zipcode": "517756",
    "siruta": 7883
  },
  {
    "name": "Biia",
    "zipcode": "517757",
    "siruta": 7892
  },
  {
    "name": "Doptău",
    "zipcode": "517758",
    "siruta": 7909
  },
  {
    "name": "Lunca Târnavei",
    "zipcode": "517759",
    "siruta": 7918
  },
  {
    "name": "Sânmiclăuș",
    "zipcode": "517761",
    "siruta": 7927
  },
  {
    "name": "Valea Sasului",
    "zipcode": "517762",
    "siruta": 7936
  },
  {
    "name": "Șpring",
    "zipcode": "517765",
    "siruta": 7954
  },
  {
    "name": "Carpen",
    "zipcode": "517766",
    "siruta": 7963
  },
  {
    "name": "Carpenii de Sus",
    "zipcode": "517767",
    "siruta": 7972
  },
  {
    "name": "Cunța",
    "zipcode": "517768",
    "siruta": 7981
  },
  {
    "name": "Drașov",
    "zipcode": "517769",
    "siruta": 7990
  },
  {
    "name": "Vingard",
    "zipcode": "517771",
    "siruta": 8005
  },
  {
    "name": "Șugag",
    "zipcode": "517775",
    "siruta": 8023
  },
  {
    "name": "Arți",
    "zipcode": "517776",
    "siruta": 8032
  },
  {
    "name": "Bârsana",
    "zipcode": "517777",
    "siruta": 8041
  },
  {
    "name": "Dobra",
    "zipcode": "517778",
    "siruta": 8050
  },
  {
    "name": "Jidoștina",
    "zipcode": "517779",
    "siruta": 8069
  },
  {
    "name": "Mărtinie",
    "zipcode": "517781",
    "siruta": 8078
  },
  {
    "name": "Tău Bistra",
    "zipcode": "517782",
    "siruta": 8087
  },
  {
    "name": "Unirea",
    "zipcode": "517785",
    "siruta": 8167
  },
  {
    "name": "Ciugudu de Jos",
    "zipcode": "517786",
    "siruta": 8176
  },
  {
    "name": "Ciugudu de Sus",
    "zipcode": "517787",
    "siruta": 8185
  },
  {
    "name": "Dumbrava (Unirea)",
    "zipcode": "517788",
    "siruta": 8194
  },
  {
    "name": "Inoc",
    "zipcode": "517789",
    "siruta": 8201
  },
  {
    "name": "Măhăceni",
    "zipcode": "517791",
    "siruta": 8210
  },
  {
    "name": "Vadu Moților",
    "zipcode": "517795",
    "siruta": 8238
  },
  {
    "name": "Bodești",
    "zipcode": "517796",
    "siruta": 8247
  },
  {
    "name": "Burzești",
    "zipcode": "517797",
    "siruta": 8256
  },
  {
    "name": "Dealu Frumos (Vadu Moților)",
    "zipcode": "517798",
    "siruta": 8265
  },
  {
    "name": "Lăzești (Vadu Moților)",
    "zipcode": "517799",
    "siruta": 8274
  },
  {
    "name": "Necșești",
    "zipcode": "517801",
    "siruta": 8283
  },
  {
    "name": "Poduri-Bricești",
    "zipcode": "517802",
    "siruta": 8292
  },
  {
    "name": "Popeștii de Jos",
    "zipcode": "517803",
    "siruta": 8309
  },
  {
    "name": "Popeștii de Sus",
    "zipcode": "517804",
    "siruta": 8318
  },
  {
    "name": "Tomuțești",
    "zipcode": "517806",
    "siruta": 8327
  },
  {
    "name": "Toțești",
    "zipcode": "517807",
    "siruta": 8336
  },
  {
    "name": "Vâltori (Vadu Moților)",
    "zipcode": "517808",
    "siruta": 8345
  },
  {
    "name": "Valea Lungă",
    "zipcode": "517815",
    "siruta": 8363
  },
  {
    "name": "Făget",
    "zipcode": "517816",
    "siruta": 8372
  },
  {
    "name": "Glogoveț",
    "zipcode": "517817",
    "siruta": 8381
  },
  {
    "name": "Lodroman",
    "zipcode": "517818",
    "siruta": 8390
  },
  {
    "name": "Lunca (Valea Lungă)",
    "zipcode": "517819",
    "siruta": 8407
  },
  {
    "name": "Tăuni",
    "zipcode": "517821",
    "siruta": 8416
  },
  {
    "name": "Vidra",
    "zipcode": "517825",
    "siruta": 8434
  },
  {
    "name": "Băi",
    "zipcode": "517826",
    "siruta": 8443
  },
  {
    "name": "Bobărești (Vidra)",
    "zipcode": "517827",
    "siruta": 8452
  },
  {
    "name": "Bogdănești (Vidra)",
    "zipcode": "517828",
    "siruta": 8461
  },
  {
    "name": "Bordeștii Poieni",
    "zipcode": "517829",
    "siruta": 8470
  },
  {
    "name": "Culdești",
    "zipcode": "517831",
    "siruta": 8489
  },
  {
    "name": "Dealu Goiești",
    "zipcode": "517832",
    "siruta": 8498
  },
  {
    "name": "Dos",
    "zipcode": "517833",
    "siruta": 8504
  },
  {
    "name": "Dosu Luncii",
    "zipcode": "517834",
    "siruta": 8513
  },
  {
    "name": "Dosu Văsești",
    "zipcode": "517836",
    "siruta": 8522
  },
  {
    "name": "Drăgoiești-Luncă",
    "zipcode": "517837",
    "siruta": 8531
  },
  {
    "name": "Ficărești",
    "zipcode": "517838",
    "siruta": 8540
  },
  {
    "name": "Gligorești",
    "zipcode": "517839",
    "siruta": 8559
  },
  {
    "name": "Goiești",
    "zipcode": "517841",
    "siruta": 8568
  },
  {
    "name": "Haiducești",
    "zipcode": "517842",
    "siruta": 8577
  },
  {
    "name": "Hărăști",
    "zipcode": "517843",
    "siruta": 8586
  },
  {
    "name": "Hoancă (Vidra)",
    "zipcode": "517844",
    "siruta": 8595
  },
  {
    "name": "Jeflești",
    "zipcode": "517846",
    "siruta": 8602
  },
  {
    "name": "Lunca (Vidra)",
    "zipcode": "517847",
    "siruta": 8611
  },
  {
    "name": "Lunca Bisericii",
    "zipcode": "517848",
    "siruta": 8620
  },
  {
    "name": "Lunca Goiești",
    "zipcode": "517849",
    "siruta": 8648
  },
  {
    "name": "Lunca Vesești",
    "zipcode": "517851",
    "siruta": 8657
  },
  {
    "name": "Lunca de Jos",
    "zipcode": "517852",
    "siruta": 8639
  },
  {
    "name": "Modolești (Vidra)",
    "zipcode": "517853",
    "siruta": 8666
  },
  {
    "name": "Nemeși",
    "zipcode": "517854",
    "siruta": 8675
  },
  {
    "name": "Oidești",
    "zipcode": "517856",
    "siruta": 8684
  },
  {
    "name": "Pitărcești",
    "zipcode": "517857",
    "siruta": 8693
  },
  {
    "name": "Pleșcuța",
    "zipcode": "517858",
    "siruta": 8700
  },
  {
    "name": "Poieni (Vidra)",
    "zipcode": "517859",
    "siruta": 8719
  },
  {
    "name": "Ponorel",
    "zipcode": "517861",
    "siruta": 8728
  },
  {
    "name": "Puiulețești",
    "zipcode": "517862",
    "siruta": 8737
  },
  {
    "name": "Runc (Vidra)",
    "zipcode": "517863",
    "siruta": 8746
  },
  {
    "name": "Segaj",
    "zipcode": "517864",
    "siruta": 8755
  },
  {
    "name": "Urdeș",
    "zipcode": "517866",
    "siruta": 8764
  },
  {
    "name": "Valea Morii",
    "zipcode": "517867",
    "siruta": 8773
  },
  {
    "name": "Văsești",
    "zipcode": "517868",
    "siruta": 8782
  },
  {
    "name": "Vâlcăneasa",
    "zipcode": "517869",
    "siruta": 8791
  },
  {
    "name": "Vâlcești",
    "zipcode": "517871",
    "siruta": 8808
  },
  {
    "name": "Vârtănești",
    "zipcode": "517872",
    "siruta": 8817
  },
  {
    "name": "Vințu de Jos",
    "zipcode": "517875",
    "siruta": 8835
  },
  {
    "name": "Câmpu Goblii",
    "zipcode": "517876",
    "siruta": 8853
  },
  {
    "name": "Ciocașu",
    "zipcode": "517877",
    "siruta": 8844
  },
  {
    "name": "Crișeni",
    "zipcode": "517878",
    "siruta": 8862
  },
  {
    "name": "Dealu Ferului",
    "zipcode": "517879",
    "siruta": 8871
  },
  {
    "name": "Gura Cuțului",
    "zipcode": "517881",
    "siruta": 8880
  },
  {
    "name": "Hațegana",
    "zipcode": "517882",
    "siruta": 8899
  },
  {
    "name": "Inuri",
    "zipcode": "517883",
    "siruta": 8906
  },
  {
    "name": "Laz (Vințu de Jos)",
    "zipcode": "517884",
    "siruta": 8915
  },
  {
    "name": "Mătăcina",
    "zipcode": "517886",
    "siruta": 8924
  },
  {
    "name": "Mereteu",
    "zipcode": "517887",
    "siruta": 8933
  },
  {
    "name": "Pârău lui Mihai",
    "zipcode": "517888",
    "siruta": 8942
  },
  {
    "name": "Poienița (Vințu de Jos)",
    "zipcode": "517889",
    "siruta": 8951
  },
  {
    "name": "Stăuini",
    "zipcode": "517891",
    "siruta": 8960
  },
  {
    "name": "Valea Goblii",
    "zipcode": "517892",
    "siruta": 8979
  },
  {
    "name": "Valea Vințului",
    "zipcode": "517893",
    "siruta": 8997
  },
  {
    "name": "Valea lui Mihai",
    "zipcode": "517894",
    "siruta": 8988
  },
  {
    "name": "Vurpăr",
    "zipcode": "517896",
    "siruta": 9002
  }
]