[
  {
    "name": "Hârlău",
    "zipcode": "705100",
    "siruta": 95364
  },
  {
    "name": "Pârcovaci",
    "zipcode": "705101",
    "siruta": 95373
  },
  {
    "name": "Pașcani",
    "zipcode": "705200",
    "siruta": 95408
  },
  {
    "name": "Blăgești",
    "zipcode": "705201",
    "siruta": 95417
  },
  {
    "name": "Boșteni",
    "zipcode": "705202",
    "siruta": 95426
  },
  {
    "name": "Gâștești",
    "zipcode": "705203",
    "siruta": 95435
  },
  {
    "name": "Lunca (Pașcani)",
    "zipcode": "705204",
    "siruta": 95444
  },
  {
    "name": "Sodomeni",
    "zipcode": "705205",
    "siruta": 95453
  },
  {
    "name": "Târgu Frumos",
    "zipcode": "705300",
    "siruta": 95480
  },
  {
    "name": "Balș",
    "zipcode": "705301",
    "siruta": 95505
  },
  {
    "name": "Boureni (Balș)",
    "zipcode": "705302",
    "siruta": 95514
  },
  {
    "name": "Buznea",
    "zipcode": "705303",
    "siruta": 95523
  },
  {
    "name": "Coasta Măgurii",
    "zipcode": "705304",
    "siruta": 95532
  },
  {
    "name": "Costești",
    "zipcode": "705305",
    "siruta": 95541
  },
  {
    "name": "Dădești",
    "zipcode": "705306",
    "siruta": 95550
  },
  {
    "name": "Gănești",
    "zipcode": "705307",
    "siruta": 95569
  },
  {
    "name": "Giurgești",
    "zipcode": "705308",
    "siruta": 95578
  },
  {
    "name": "Ion Neculce",
    "zipcode": "705309",
    "siruta": 95587
  },
  {
    "name": "Prigoreni",
    "zipcode": "705310",
    "siruta": 95596
  },
  {
    "name": "Războieni",
    "zipcode": "705311",
    "siruta": 95603
  },
  {
    "name": "Alexandru I. Cuza",
    "zipcode": "707005",
    "siruta": 95621
  },
  {
    "name": "Kogălniceni",
    "zipcode": "707006",
    "siruta": 95630
  },
  {
    "name": "Scheia",
    "zipcode": "707007",
    "siruta": 95649
  },
  {
    "name": "Volintirești",
    "zipcode": "707008",
    "siruta": 95658
  },
  {
    "name": "Andrieșeni",
    "zipcode": "707010",
    "siruta": 95676
  },
  {
    "name": "Buhăeni",
    "zipcode": "707011",
    "siruta": 95685
  },
  {
    "name": "Drăgănești",
    "zipcode": "707012",
    "siruta": 95694
  },
  {
    "name": "Fântânele (Andrieșeni)",
    "zipcode": "707013",
    "siruta": 95701
  },
  {
    "name": "Glăvănești",
    "zipcode": "707014",
    "siruta": 95710
  },
  {
    "name": "Iepureni (Andrieșeni)",
    "zipcode": "707016",
    "siruta": 95729
  },
  {
    "name": "Spineni",
    "zipcode": "707017",
    "siruta": 95738
  },
  {
    "name": "Aroneanu",
    "zipcode": "707020",
    "siruta": 95756
  },
  {
    "name": "Dorobanț",
    "zipcode": "707021",
    "siruta": 95765
  },
  {
    "name": "Rediu Aldei",
    "zipcode": "707022",
    "siruta": 95774
  },
  {
    "name": "Șorogari",
    "zipcode": "707023",
    "siruta": 95783
  },
  {
    "name": "Bălțați",
    "zipcode": "707025",
    "siruta": 95809
  },
  {
    "name": "Cotârgaci",
    "zipcode": "707026",
    "siruta": 95818
  },
  {
    "name": "Filiași",
    "zipcode": "707027",
    "siruta": 95827
  },
  {
    "name": "Mădârjești",
    "zipcode": "707028",
    "siruta": 95836
  },
  {
    "name": "Podișu",
    "zipcode": "707029",
    "siruta": 95845
  },
  {
    "name": "Sârca",
    "zipcode": "707031",
    "siruta": 95854
  },
  {
    "name": "Valea Oilor",
    "zipcode": "707032",
    "siruta": 95863
  },
  {
    "name": "Bârnova",
    "zipcode": "707035",
    "siruta": 95097
  },
  {
    "name": "Cercu",
    "zipcode": "707036",
    "siruta": 95104
  },
  {
    "name": "Păun",
    "zipcode": "707037",
    "siruta": 95113
  },
  {
    "name": "Pietrăria",
    "zipcode": "707038",
    "siruta": 95122
  },
  {
    "name": "Todirel",
    "zipcode": "707039",
    "siruta": 95131
  },
  {
    "name": "Vișan",
    "zipcode": "707041",
    "siruta": 95140
  },
  {
    "name": "Belcești",
    "zipcode": "707045",
    "siruta": 95881
  },
  {
    "name": "Liteni",
    "zipcode": "707046",
    "siruta": 95890
  },
  {
    "name": "Munteni",
    "zipcode": "707047",
    "siruta": 95907
  },
  {
    "name": "Satu Nou (Belcești)",
    "zipcode": "707048",
    "siruta": 95916
  },
  {
    "name": "Tansa (Belcești)",
    "zipcode": "707049",
    "siruta": 95925
  },
  {
    "name": "Ulmi",
    "zipcode": "707051",
    "siruta": 95934
  },
  {
    "name": "Bivolari",
    "zipcode": "707055",
    "siruta": 95952
  },
  {
    "name": "Buruienești",
    "zipcode": "707056",
    "siruta": 95961
  },
  {
    "name": "Soloneț",
    "zipcode": "707057",
    "siruta": 95970
  },
  {
    "name": "Tabăra",
    "zipcode": "707058",
    "siruta": 95989
  },
  {
    "name": "Traian",
    "zipcode": "707059",
    "siruta": 95998
  },
  {
    "name": "Brăești",
    "zipcode": "707060",
    "siruta": 96067
  },
  {
    "name": "Albești",
    "zipcode": "707061",
    "siruta": 96076
  },
  {
    "name": "Buda (Brăești)",
    "zipcode": "707062",
    "siruta": 96085
  },
  {
    "name": "Cristești (Brăești)",
    "zipcode": "707063",
    "siruta": 96094
  },
  {
    "name": "Rediu (Brăești)",
    "zipcode": "707064",
    "siruta": 96101
  },
  {
    "name": "Butea",
    "zipcode": "707065",
    "siruta": 96129
  },
  {
    "name": "Miclăușeni",
    "zipcode": "707066",
    "siruta": 96138
  },
  {
    "name": "Ceplenița",
    "zipcode": "707070",
    "siruta": 96156
  },
  {
    "name": "Buhalnița",
    "zipcode": "707071",
    "siruta": 96165
  },
  {
    "name": "Poiana Mărului",
    "zipcode": "707072",
    "siruta": 96174
  },
  {
    "name": "Zlodica",
    "zipcode": "707073",
    "siruta": 96183
  },
  {
    "name": "Ciortești",
    "zipcode": "707075",
    "siruta": 96209
  },
  {
    "name": "Coropceni",
    "zipcode": "707076",
    "siruta": 96218
  },
  {
    "name": "Deleni (Ciortești)",
    "zipcode": "707077",
    "siruta": 96227
  },
  {
    "name": "Rotăria",
    "zipcode": "707078",
    "siruta": 96236
  },
  {
    "name": "Șerbești",
    "zipcode": "707079",
    "siruta": 96245
  },
  {
    "name": "Ciurea",
    "zipcode": "707080",
    "siruta": 96263
  },
  {
    "name": "Curături",
    "zipcode": "707081",
    "siruta": 96272
  },
  {
    "name": "Dumbrava (Ciurea)",
    "zipcode": "707082",
    "siruta": 96281
  },
  {
    "name": "Hlincea",
    "zipcode": "707083",
    "siruta": 96290
  },
  {
    "name": "Picioru Lupului",
    "zipcode": "707084",
    "siruta": 96316
  },
  {
    "name": "Lunca Cetățuii",
    "zipcode": "707085",
    "siruta": 96307
  },
  {
    "name": "Slobozia (Ciurea)",
    "zipcode": "707086",
    "siruta": 96325
  },
  {
    "name": "Coarnele Caprei",
    "zipcode": "707100",
    "siruta": 96343
  },
  {
    "name": "Arama",
    "zipcode": "707101",
    "siruta": 96352
  },
  {
    "name": "Petroșica",
    "zipcode": "707102",
    "siruta": 96361
  },
  {
    "name": "Comarna",
    "zipcode": "707105",
    "siruta": 96398
  },
  {
    "name": "Curagău",
    "zipcode": "707106",
    "siruta": 96405
  },
  {
    "name": "Stânca (Comarna)",
    "zipcode": "707107",
    "siruta": 96414
  },
  {
    "name": "Osoi (Comarna)",
    "zipcode": "707110",
    "siruta": 96389
  },
  {
    "name": "Costuleni",
    "zipcode": "707115",
    "siruta": 96432
  },
  {
    "name": "Covasna",
    "zipcode": "707116",
    "siruta": 96441
  },
  {
    "name": "Cozia",
    "zipcode": "707117",
    "siruta": 96450
  },
  {
    "name": "Hilița",
    "zipcode": "707118",
    "siruta": 96469
  },
  {
    "name": "Cotnari",
    "zipcode": "707120",
    "siruta": 96487
  },
  {
    "name": "Bahluiu",
    "zipcode": "707121",
    "siruta": 96496
  },
  {
    "name": "Cârjoaia",
    "zipcode": "707122",
    "siruta": 96511
  },
  {
    "name": "Cireșeni",
    "zipcode": "707123",
    "siruta": 96502
  },
  {
    "name": "Făgăt",
    "zipcode": "707124",
    "siruta": 96520
  },
  {
    "name": "Hodora",
    "zipcode": "707126",
    "siruta": 96539
  },
  {
    "name": "Horodiștea",
    "zipcode": "707127",
    "siruta": 96548
  },
  {
    "name": "Iosupeni",
    "zipcode": "707128",
    "siruta": 96557
  },
  {
    "name": "Lupăria",
    "zipcode": "707129",
    "siruta": 96566
  },
  {
    "name": "Valea Racului",
    "zipcode": "707131",
    "siruta": 96575
  },
  {
    "name": "Zbereni",
    "zipcode": "707132",
    "siruta": 96584
  },
  {
    "name": "Cozmești",
    "zipcode": "707140",
    "siruta": 96600
  },
  {
    "name": "Podolenii de Jos",
    "zipcode": "707141",
    "siruta": 96619
  },
  {
    "name": "Podolenii de Sus",
    "zipcode": "707142",
    "siruta": 96628
  },
  {
    "name": "Cristești",
    "zipcode": "707145",
    "siruta": 96646
  },
  {
    "name": "Homița",
    "zipcode": "707146",
    "siruta": 96655
  },
  {
    "name": "Cucuteni",
    "zipcode": "707150",
    "siruta": 96673
  },
  {
    "name": "Băiceni (Cucuteni)",
    "zipcode": "707151",
    "siruta": 96682
  },
  {
    "name": "Bărbătești",
    "zipcode": "707152",
    "siruta": 96691
  },
  {
    "name": "Săcărești",
    "zipcode": "707153",
    "siruta": 96708
  },
  {
    "name": "Dagâța",
    "zipcode": "707155",
    "siruta": 96726
  },
  {
    "name": "Bălușești",
    "zipcode": "707156",
    "siruta": 96735
  },
  {
    "name": "Boatca",
    "zipcode": "707157",
    "siruta": 96744
  },
  {
    "name": "Buzdug",
    "zipcode": "707158",
    "siruta": 96753
  },
  {
    "name": "Mănăstirea",
    "zipcode": "707159",
    "siruta": 96762
  },
  {
    "name": "Piscu Rusului",
    "zipcode": "707161",
    "siruta": 96771
  },
  {
    "name": "Poienile",
    "zipcode": "707162",
    "siruta": 96780
  },
  {
    "name": "Tarnița",
    "zipcode": "707163",
    "siruta": 96799
  },
  {
    "name": "Zece Prăjini",
    "zipcode": "707164",
    "siruta": 96806
  },
  {
    "name": "Deleni",
    "zipcode": "707165",
    "siruta": 96824
  },
  {
    "name": "Feredeni",
    "zipcode": "707166",
    "siruta": 96833
  },
  {
    "name": "Leahu-Nacu",
    "zipcode": "707167",
    "siruta": 96842
  },
  {
    "name": "Maxut",
    "zipcode": "707168",
    "siruta": 96851
  },
  {
    "name": "Poiana (Deleni)",
    "zipcode": "707169",
    "siruta": 96860
  },
  {
    "name": "Slobozia (Deleni)",
    "zipcode": "707171",
    "siruta": 96879
  },
  {
    "name": "Dobrovăț",
    "zipcode": "707175",
    "siruta": 96897
  },
  {
    "name": "Dolhești",
    "zipcode": "707180",
    "siruta": 96913
  },
  {
    "name": "Brădicești",
    "zipcode": "707181",
    "siruta": 96922
  },
  {
    "name": "Pietriș",
    "zipcode": "707182",
    "siruta": 96931
  },
  {
    "name": "Dumești",
    "zipcode": "707185",
    "siruta": 96959
  },
  {
    "name": "Banu",
    "zipcode": "707186",
    "siruta": 96968
  },
  {
    "name": "Chilișoaia",
    "zipcode": "707187",
    "siruta": 96977
  },
  {
    "name": "Hoisești",
    "zipcode": "707188",
    "siruta": 96986
  },
  {
    "name": "Păușești",
    "zipcode": "707189",
    "siruta": 96995
  },
  {
    "name": "Erbiceni",
    "zipcode": "707190",
    "siruta": 97018
  },
  {
    "name": "Bârlești",
    "zipcode": "707191",
    "siruta": 97027
  },
  {
    "name": "Spinoasa",
    "zipcode": "707192",
    "siruta": 97036
  },
  {
    "name": "Sprânceana",
    "zipcode": "707193",
    "siruta": 97045
  },
  {
    "name": "Totoești",
    "zipcode": "707194",
    "siruta": 97054
  },
  {
    "name": "Focuri",
    "zipcode": "707195",
    "siruta": 97072
  },
  {
    "name": "Fântânele",
    "zipcode": "707196",
    "siruta": 97081
  },
  {
    "name": "Golăiești",
    "zipcode": "707200",
    "siruta": 97107
  },
  {
    "name": "Bran",
    "zipcode": "707201",
    "siruta": 97116
  },
  {
    "name": "Cilibiu",
    "zipcode": "707202",
    "siruta": 97125
  },
  {
    "name": "Cotu lui Ivan",
    "zipcode": "707203",
    "siruta": 97134
  },
  {
    "name": "Grădinari",
    "zipcode": "707204",
    "siruta": 97143
  },
  {
    "name": "Medeleni",
    "zipcode": "707206",
    "siruta": 97152
  },
  {
    "name": "Petrești",
    "zipcode": "707207",
    "siruta": 97161
  },
  {
    "name": "Podu Jijiei",
    "zipcode": "707208",
    "siruta": 97170
  },
  {
    "name": "Gorban",
    "zipcode": "707210",
    "siruta": 97198
  },
  {
    "name": "Gura Bohotin",
    "zipcode": "707211",
    "siruta": 97205
  },
  {
    "name": "Podu Hagiului",
    "zipcode": "707212",
    "siruta": 97214
  },
  {
    "name": "Scoposeni (Gorban)",
    "zipcode": "707213",
    "siruta": 97223
  },
  {
    "name": "Zberoaia",
    "zipcode": "707214",
    "siruta": 97232
  },
  {
    "name": "Grajduri",
    "zipcode": "707215",
    "siruta": 97250
  },
  {
    "name": "Cărbunari",
    "zipcode": "707216",
    "siruta": 97269
  },
  {
    "name": "Corcodel",
    "zipcode": "707217",
    "siruta": 97278
  },
  {
    "name": "Lunca (Grajduri)",
    "zipcode": "707218",
    "siruta": 97287
  },
  {
    "name": "Pădureni (Grajduri)",
    "zipcode": "707219",
    "siruta": 97296
  },
  {
    "name": "Poiana cu Cetate",
    "zipcode": "707221",
    "siruta": 97303
  },
  {
    "name": "Valea Satului",
    "zipcode": "707222",
    "siruta": 97312
  },
  {
    "name": "Gropnița",
    "zipcode": "707225",
    "siruta": 97330
  },
  {
    "name": "Bulbucani",
    "zipcode": "707226",
    "siruta": 97349
  },
  {
    "name": "Forăști",
    "zipcode": "707227",
    "siruta": 97358
  },
  {
    "name": "Mălăești",
    "zipcode": "707228",
    "siruta": 97367
  },
  {
    "name": "Săveni",
    "zipcode": "707229",
    "siruta": 97376
  },
  {
    "name": "Sângeri",
    "zipcode": "707231",
    "siruta": 97385
  },
  {
    "name": "Grozești",
    "zipcode": "707235",
    "siruta": 97401
  },
  {
    "name": "Colțu Cornii",
    "zipcode": "707236",
    "siruta": 97410
  },
  {
    "name": "Sălăgeni",
    "zipcode": "707237",
    "siruta": 97429
  },
  {
    "name": "Hălăucești",
    "zipcode": "707240",
    "siruta": 97447
  },
  {
    "name": "Luncași",
    "zipcode": "707241",
    "siruta": 97456
  },
  {
    "name": "Heleșteni",
    "zipcode": "707245",
    "siruta": 97474
  },
  {
    "name": "Hărmăneasa",
    "zipcode": "707246",
    "siruta": 97483
  },
  {
    "name": "Movileni (Heleșteni)",
    "zipcode": "707247",
    "siruta": 97492
  },
  {
    "name": "Oboroceni",
    "zipcode": "707248",
    "siruta": 97508
  },
  {
    "name": "Holboca",
    "zipcode": "707250",
    "siruta": 95168
  },
  {
    "name": "Cristești (Holboca)",
    "zipcode": "707251",
    "siruta": 95177
  },
  {
    "name": "Dancu",
    "zipcode": "707252",
    "siruta": 95186
  },
  {
    "name": "Orzeni",
    "zipcode": "707253",
    "siruta": 95195
  },
  {
    "name": "Rusenii Noi",
    "zipcode": "707254",
    "siruta": 95202
  },
  {
    "name": "Rusenii Vechi",
    "zipcode": "707256",
    "siruta": 95211
  },
  {
    "name": "Valea Lungă",
    "zipcode": "707257",
    "siruta": 95220
  },
  {
    "name": "Horlești",
    "zipcode": "707260",
    "siruta": 97526
  },
  {
    "name": "Bogdănești",
    "zipcode": "707261",
    "siruta": 97535
  },
  {
    "name": "Scoposeni (Horlești)",
    "zipcode": "707262",
    "siruta": 97544
  },
  {
    "name": "Ipatele",
    "zipcode": "707265",
    "siruta": 97562
  },
  {
    "name": "Alexești",
    "zipcode": "707266",
    "siruta": 97571
  },
  {
    "name": "Bâcu",
    "zipcode": "707267",
    "siruta": 97580
  },
  {
    "name": "Cuza Vodă (Ipatele)",
    "zipcode": "707268",
    "siruta": 97599
  },
  {
    "name": "Lespezi",
    "zipcode": "707270",
    "siruta": 97615
  },
  {
    "name": "Buda (Lespezi)",
    "zipcode": "707271",
    "siruta": 97624
  },
  {
    "name": "Bursuc-Deal",
    "zipcode": "707272",
    "siruta": 97633
  },
  {
    "name": "Bursuc-Vale",
    "zipcode": "707273",
    "siruta": 97642
  },
  {
    "name": "Dumbrava (Lespezi)",
    "zipcode": "707274",
    "siruta": 97651
  },
  {
    "name": "Heci",
    "zipcode": "707276",
    "siruta": 97660
  },
  {
    "name": "Lețcani",
    "zipcode": "707280",
    "siruta": 97688
  },
  {
    "name": "Bogonos",
    "zipcode": "707281",
    "siruta": 97697
  },
  {
    "name": "Cogeasca",
    "zipcode": "707282",
    "siruta": 97704
  },
  {
    "name": "Cucuteni (Lețcani)",
    "zipcode": "707283",
    "siruta": 97713
  },
  {
    "name": "Lungani",
    "zipcode": "707285",
    "siruta": 97731
  },
  {
    "name": "Crucea",
    "zipcode": "707286",
    "siruta": 97740
  },
  {
    "name": "Goești",
    "zipcode": "707287",
    "siruta": 97759
  },
  {
    "name": "Zmeu",
    "zipcode": "707288",
    "siruta": 97768
  },
  {
    "name": "Mădârjac",
    "zipcode": "707290",
    "siruta": 97786
  },
  {
    "name": "Bojila",
    "zipcode": "707291",
    "siruta": 97795
  },
  {
    "name": "Frumușica",
    "zipcode": "707292",
    "siruta": 97802
  },
  {
    "name": "Mircești",
    "zipcode": "707295",
    "siruta": 97820
  },
  {
    "name": "Iugani",
    "zipcode": "707296",
    "siruta": 97839
  },
  {
    "name": "Izvoarele",
    "zipcode": "707297",
    "siruta": 97848
  },
  {
    "name": "Răchiteni",
    "zipcode": "707298",
    "siruta": 97857
  },
  {
    "name": "Ursărești",
    "zipcode": "707299",
    "siruta": 97866
  },
  {
    "name": "Mironeasa",
    "zipcode": "707300",
    "siruta": 97884
  },
  {
    "name": "Schitu Hadâmbului",
    "zipcode": "707301",
    "siruta": 97893
  },
  {
    "name": "Urșița",
    "zipcode": "707302",
    "siruta": 97900
  },
  {
    "name": "Miroslava",
    "zipcode": "707305",
    "siruta": 97928
  },
  {
    "name": "Balciu",
    "zipcode": "707306",
    "siruta": 97937
  },
  {
    "name": "Brătuleni",
    "zipcode": "707307",
    "siruta": 97946
  },
  {
    "name": "Ciurbești",
    "zipcode": "707308",
    "siruta": 97955
  },
  {
    "name": "Cornești",
    "zipcode": "707309",
    "siruta": 97964
  },
  {
    "name": "Dancaș",
    "zipcode": "707311",
    "siruta": 97973
  },
  {
    "name": "Găureni",
    "zipcode": "707312",
    "siruta": 97982
  },
  {
    "name": "Horpaz",
    "zipcode": "707313",
    "siruta": 97991
  },
  {
    "name": "Proselnici",
    "zipcode": "707314",
    "siruta": 98006
  },
  {
    "name": "Uricani",
    "zipcode": "707316",
    "siruta": 98015
  },
  {
    "name": "Valea Adâncă",
    "zipcode": "707317",
    "siruta": 98024
  },
  {
    "name": "Valea Ursului",
    "zipcode": "707318",
    "siruta": 98033
  },
  {
    "name": "Vorovești",
    "zipcode": "707319",
    "siruta": 98042
  },
  {
    "name": "Miroslovești",
    "zipcode": "707325",
    "siruta": 98060
  },
  {
    "name": "Ciohorăni",
    "zipcode": "707326",
    "siruta": 98079
  },
  {
    "name": "Mitești",
    "zipcode": "707327",
    "siruta": 98088
  },
  {
    "name": "Soci",
    "zipcode": "707328",
    "siruta": 98097
  },
  {
    "name": "Verșeni",
    "zipcode": "707329",
    "siruta": 98104
  },
  {
    "name": "Mogoșești",
    "zipcode": "707330",
    "siruta": 98122
  },
  {
    "name": "Budești",
    "zipcode": "707331",
    "siruta": 98131
  },
  {
    "name": "Hadâmbu",
    "zipcode": "707332",
    "siruta": 98140
  },
  {
    "name": "Mânjești",
    "zipcode": "707333",
    "siruta": 98159
  },
  {
    "name": "Mogoșești-Siret",
    "zipcode": "707335",
    "siruta": 98177
  },
  {
    "name": "Muncelu de Sus",
    "zipcode": "707336",
    "siruta": 98186
  },
  {
    "name": "Tudor Vladimirescu",
    "zipcode": "707337",
    "siruta": 98195
  },
  {
    "name": "Moșna",
    "zipcode": "707340",
    "siruta": 98211
  },
  {
    "name": "Moțca",
    "zipcode": "707345",
    "siruta": 98239
  },
  {
    "name": "Boureni (Moțca)",
    "zipcode": "707346",
    "siruta": 98248
  },
  {
    "name": "Movileni",
    "zipcode": "707350",
    "siruta": 98266
  },
  {
    "name": "Iepureni (Movileni)",
    "zipcode": "707351",
    "siruta": 98275
  },
  {
    "name": "Larga-Jijia",
    "zipcode": "707352",
    "siruta": 98284
  },
  {
    "name": "Potângeni",
    "zipcode": "707353",
    "siruta": 98293
  },
  {
    "name": "Oțeleni",
    "zipcode": "707355",
    "siruta": 98319
  },
  {
    "name": "Hândrești",
    "zipcode": "707356",
    "siruta": 98328
  },
  {
    "name": "Plugari",
    "zipcode": "707360",
    "siruta": 98346
  },
  {
    "name": "Borosoaia",
    "zipcode": "707361",
    "siruta": 98355
  },
  {
    "name": "Onești",
    "zipcode": "707362",
    "siruta": 98364
  },
  {
    "name": "Podu Iloaiei",
    "zipcode": "707365",
    "siruta": 98382
  },
  {
    "name": "Budăi",
    "zipcode": "707366",
    "siruta": 98391
  },
  {
    "name": "Cosițeni",
    "zipcode": "707367",
    "siruta": 98408
  },
  {
    "name": "Holm",
    "zipcode": "707368",
    "siruta": 98417
  },
  {
    "name": "Scobâlțeni",
    "zipcode": "707369",
    "siruta": 98426
  },
  {
    "name": "Popești",
    "zipcode": "707370",
    "siruta": 98444
  },
  {
    "name": "Doroșcani",
    "zipcode": "707371",
    "siruta": 98453
  },
  {
    "name": "Hărpășești",
    "zipcode": "707372",
    "siruta": 98462
  },
  {
    "name": "Obrijeni",
    "zipcode": "707373",
    "siruta": 98471
  },
  {
    "name": "Pădureni (Popești)",
    "zipcode": "707374",
    "siruta": 98480
  },
  {
    "name": "Vama",
    "zipcode": "707376",
    "siruta": 98499
  },
  {
    "name": "Popricani",
    "zipcode": "707380",
    "siruta": 98514
  },
  {
    "name": "Cârlig",
    "zipcode": "707381",
    "siruta": 98523
  },
  {
    "name": "Cotu Morii",
    "zipcode": "707382",
    "siruta": 98532
  },
  {
    "name": "Cuza Vodă (Popricani)",
    "zipcode": "707383",
    "siruta": 98541
  },
  {
    "name": "Moimești",
    "zipcode": "707384",
    "siruta": 98550
  },
  {
    "name": "Rediu Mitropoliei",
    "zipcode": "707386",
    "siruta": 98569
  },
  {
    "name": "Țipilești",
    "zipcode": "707387",
    "siruta": 98578
  },
  {
    "name": "Vânători (Popricani)",
    "zipcode": "707388",
    "siruta": 98587
  },
  {
    "name": "Vulturi",
    "zipcode": "707389",
    "siruta": 98596
  },
  {
    "name": "Prisăcani",
    "zipcode": "707390",
    "siruta": 98612
  },
  {
    "name": "Măcărești",
    "zipcode": "707391",
    "siruta": 98621
  },
  {
    "name": "Moreni",
    "zipcode": "707392",
    "siruta": 98630
  },
  {
    "name": "Probota",
    "zipcode": "707395",
    "siruta": 98658
  },
  {
    "name": "Bălteni",
    "zipcode": "707396",
    "siruta": 98667
  },
  {
    "name": "Perieni",
    "zipcode": "707397",
    "siruta": 98676
  },
  {
    "name": "Răducăneni",
    "zipcode": "707400",
    "siruta": 98694
  },
  {
    "name": "Bohotin",
    "zipcode": "707401",
    "siruta": 98701
  },
  {
    "name": "Isaiia",
    "zipcode": "707402",
    "siruta": 98710
  },
  {
    "name": "Roșu",
    "zipcode": "707403",
    "siruta": 98729
  },
  {
    "name": "Rediu",
    "zipcode": "707405",
    "siruta": 95248
  },
  {
    "name": "Breazu",
    "zipcode": "707406",
    "siruta": 95257
  },
  {
    "name": "Horlești (Rediu)",
    "zipcode": "707407",
    "siruta": 95266
  },
  {
    "name": "Tăutești",
    "zipcode": "707408",
    "siruta": 95275
  },
  {
    "name": "Valea Lupului",
    "zipcode": "707410",
    "siruta": 95284
  },
  {
    "name": "Românești",
    "zipcode": "707415",
    "siruta": 98747
  },
  {
    "name": "Avântu",
    "zipcode": "707416",
    "siruta": 98756
  },
  {
    "name": "Ursoaia",
    "zipcode": "707417",
    "siruta": 98765
  },
  {
    "name": "Ruginoasa",
    "zipcode": "707420",
    "siruta": 98783
  },
  {
    "name": "Dumbrăvița",
    "zipcode": "707421",
    "siruta": 98792
  },
  {
    "name": "Rediu (Ruginoasa)",
    "zipcode": "707422",
    "siruta": 98809
  },
  {
    "name": "Vascani",
    "zipcode": "707423",
    "siruta": 98818
  },
  {
    "name": "Scânteia",
    "zipcode": "707425",
    "siruta": 98925
  },
  {
    "name": "Bodești",
    "zipcode": "707426",
    "siruta": 98934
  },
  {
    "name": "Boroșești",
    "zipcode": "707427",
    "siruta": 98943
  },
  {
    "name": "Ciocârlești",
    "zipcode": "707428",
    "siruta": 98952
  },
  {
    "name": "Lunca Rateș",
    "zipcode": "707429",
    "siruta": 98961
  },
  {
    "name": "Rediu (Scânteia)",
    "zipcode": "707431",
    "siruta": 98970
  },
  {
    "name": "Tufeștii de Sus",
    "zipcode": "707432",
    "siruta": 98989
  },
  {
    "name": "Schitu Duca",
    "zipcode": "707435",
    "siruta": 98836
  },
  {
    "name": "Blaga",
    "zipcode": "707436",
    "siruta": 98845
  },
  {
    "name": "Dumitreștii Gălății",
    "zipcode": "707437",
    "siruta": 98854
  },
  {
    "name": "Pocreaca",
    "zipcode": "707438",
    "siruta": 98863
  },
  {
    "name": "Poiana (Schitu Duca)",
    "zipcode": "707439",
    "siruta": 98881
  },
  {
    "name": "Poieni",
    "zipcode": "707441",
    "siruta": 98872
  },
  {
    "name": "Satu Nou ",
    "zipcode": "707442",
    "siruta": 98890
  },
  {
    "name": "Slobozia (Schitu Duca)",
    "zipcode": "707443",
    "siruta": 98907
  },
  {
    "name": "Scobinți",
    "zipcode": "707445",
    "siruta": 99003
  },
  {
    "name": "Bădeni",
    "zipcode": "707446",
    "siruta": 99012
  },
  {
    "name": "Fetești",
    "zipcode": "707447",
    "siruta": 99021
  },
  {
    "name": "Sticlăria",
    "zipcode": "707448",
    "siruta": 99030
  },
  {
    "name": "Zagavia",
    "zipcode": "707449",
    "siruta": 99049
  },
  {
    "name": "Sinești",
    "zipcode": "707450",
    "siruta": 99067
  },
  {
    "name": "Bocnița",
    "zipcode": "707451",
    "siruta": 99076
  },
  {
    "name": "Osoi (Sinești)",
    "zipcode": "707452",
    "siruta": 99085
  },
  {
    "name": "Stornești",
    "zipcode": "707453",
    "siruta": 99094
  },
  {
    "name": "Sirețel",
    "zipcode": "707455",
    "siruta": 99110
  },
  {
    "name": "Berezlogi",
    "zipcode": "707456",
    "siruta": 99129
  },
  {
    "name": "Humosu",
    "zipcode": "707457",
    "siruta": 99138
  },
  {
    "name": "Satu Nou (Sirețel)",
    "zipcode": "707458",
    "siruta": 99147
  },
  {
    "name": "Slobozia (Sirețel)",
    "zipcode": "707459",
    "siruta": 99156
  },
  {
    "name": "Stolniceni-Prăjescu",
    "zipcode": "707460",
    "siruta": 99174
  },
  {
    "name": "Brătești",
    "zipcode": "707461",
    "siruta": 99183
  },
  {
    "name": "Cozmești (Stolniceni-Prăjescu)",
    "zipcode": "707462",
    "siruta": 99192
  },
  {
    "name": "Strunga",
    "zipcode": "707465",
    "siruta": 99218
  },
  {
    "name": "Brătulești",
    "zipcode": "707466",
    "siruta": 99227
  },
  {
    "name": "Crivești (Strunga)",
    "zipcode": "707467",
    "siruta": 99236
  },
  {
    "name": "Cucova",
    "zipcode": "707468",
    "siruta": 99245
  },
  {
    "name": "Fărcășeni",
    "zipcode": "707469",
    "siruta": 99254
  },
  {
    "name": "Fedeleșeni",
    "zipcode": "707471",
    "siruta": 99263
  },
  {
    "name": "Gura Văii",
    "zipcode": "707472",
    "siruta": 99272
  },
  {
    "name": "Hăbășești",
    "zipcode": "707473",
    "siruta": 99281
  },
  {
    "name": "Șcheia",
    "zipcode": "707475",
    "siruta": 99307
  },
  {
    "name": "Căuești",
    "zipcode": "707476",
    "siruta": 99316
  },
  {
    "name": "Cioca-Boca",
    "zipcode": "707477",
    "siruta": 99325
  },
  {
    "name": "Drăgușeni",
    "zipcode": "707478",
    "siruta": 99334
  },
  {
    "name": "Frenciugi",
    "zipcode": "707479",
    "siruta": 99343
  },
  {
    "name": "Poiana Șcheii",
    "zipcode": "707481",
    "siruta": 99352
  },
  {
    "name": "Satu Nou (Șcheia)",
    "zipcode": "707482",
    "siruta": 99361
  },
  {
    "name": "Șipote",
    "zipcode": "707485",
    "siruta": 99389
  },
  {
    "name": "Chișcăreni",
    "zipcode": "707486",
    "siruta": 99398
  },
  {
    "name": "Hălceni",
    "zipcode": "707487",
    "siruta": 99405
  },
  {
    "name": "Iazu Nou",
    "zipcode": "707488",
    "siruta": 99414
  },
  {
    "name": "Iazu Vechi",
    "zipcode": "707489",
    "siruta": 99423
  },
  {
    "name": "Mitoc",
    "zipcode": "707491",
    "siruta": 99432
  },
  {
    "name": "Tansa",
    "zipcode": "707495",
    "siruta": 99450
  },
  {
    "name": "Suhuleț",
    "zipcode": "707496",
    "siruta": 99469
  },
  {
    "name": "Tătăruși",
    "zipcode": "707500",
    "siruta": 99487
  },
  {
    "name": "Iorcani",
    "zipcode": "707501",
    "siruta": 99496
  },
  {
    "name": "Pietrosu",
    "zipcode": "707502",
    "siruta": 99502
  },
  {
    "name": "Uda",
    "zipcode": "707503",
    "siruta": 99511
  },
  {
    "name": "Vâlcica",
    "zipcode": "707504",
    "siruta": 99520
  },
  {
    "name": "Todirești",
    "zipcode": "707505",
    "siruta": 99548
  },
  {
    "name": "Băiceni (Todirești)",
    "zipcode": "707506",
    "siruta": 99557
  },
  {
    "name": "Boldești",
    "zipcode": "707507",
    "siruta": 99566
  },
  {
    "name": "Hărmăneștii Noi",
    "zipcode": "707508",
    "siruta": 99575
  },
  {
    "name": "Hărmăneștii Vechi",
    "zipcode": "707509",
    "siruta": 99584
  },
  {
    "name": "Hărmănești",
    "zipcode": "707510",
    "siruta": 100326
  },
  {
    "name": "Stroești",
    "zipcode": "707511",
    "siruta": 99593
  },
  {
    "name": "Tomești",
    "zipcode": "707515",
    "siruta": 95300
  },
  {
    "name": "Chicerea",
    "zipcode": "707516",
    "siruta": 95319
  },
  {
    "name": "Goruni",
    "zipcode": "707517",
    "siruta": 95328
  },
  {
    "name": "Vlădiceni",
    "zipcode": "707518",
    "siruta": 95337
  },
  {
    "name": "Trifești",
    "zipcode": "707520",
    "siruta": 99619
  },
  {
    "name": "Hermeziu",
    "zipcode": "707521",
    "siruta": 99628
  },
  {
    "name": "Rădeni",
    "zipcode": "707522",
    "siruta": 99637
  },
  {
    "name": "Roșcani",
    "zipcode": "707523",
    "siruta": 99646
  },
  {
    "name": "Vladomira",
    "zipcode": "707524",
    "siruta": 99655
  },
  {
    "name": "Zaboloteni",
    "zipcode": "707526",
    "siruta": 99664
  },
  {
    "name": "Țibana",
    "zipcode": "707530",
    "siruta": 99682
  },
  {
    "name": "Alexeni",
    "zipcode": "707531",
    "siruta": 99691
  },
  {
    "name": "Domnița",
    "zipcode": "707532",
    "siruta": 99708
  },
  {
    "name": "Gârbești",
    "zipcode": "707533",
    "siruta": 99717
  },
  {
    "name": "Moara Ciornei",
    "zipcode": "707534",
    "siruta": 99726
  },
  {
    "name": "Oproaia",
    "zipcode": "707536",
    "siruta": 99735
  },
  {
    "name": "Poiana Mănăstirii",
    "zipcode": "707537",
    "siruta": 99753
  },
  {
    "name": "Poiana de Sus",
    "zipcode": "707538",
    "siruta": 99744
  },
  {
    "name": "Runcu",
    "zipcode": "707539",
    "siruta": 99762
  },
  {
    "name": "Vadu Vejei",
    "zipcode": "707541",
    "siruta": 99771
  },
  {
    "name": "Țibănești",
    "zipcode": "707545",
    "siruta": 99799
  },
  {
    "name": "Glodenii Gândului",
    "zipcode": "707546",
    "siruta": 99806
  },
  {
    "name": "Griești",
    "zipcode": "707547",
    "siruta": 99815
  },
  {
    "name": "Jigoreni",
    "zipcode": "707548",
    "siruta": 99824
  },
  {
    "name": "Răsboieni",
    "zipcode": "707549",
    "siruta": 99833
  },
  {
    "name": "Recea",
    "zipcode": "707551",
    "siruta": 99842
  },
  {
    "name": "Tungujei",
    "zipcode": "707552",
    "siruta": 99851
  },
  {
    "name": "Vălenii",
    "zipcode": "707553",
    "siruta": 99860
  },
  {
    "name": "Țigănași",
    "zipcode": "707555",
    "siruta": 99888
  },
  {
    "name": "Cârniceni",
    "zipcode": "707556",
    "siruta": 99897
  },
  {
    "name": "Mihail Kogălniceanu",
    "zipcode": "707557",
    "siruta": 99904
  },
  {
    "name": "Stejarii",
    "zipcode": "707558",
    "siruta": 99913
  },
  {
    "name": "Țuțora",
    "zipcode": "707560",
    "siruta": 99931
  },
  {
    "name": "Chiperești",
    "zipcode": "707561",
    "siruta": 99940
  },
  {
    "name": "Oprișeni",
    "zipcode": "707562",
    "siruta": 99959
  },
  {
    "name": "Ungheni",
    "zipcode": "707565",
    "siruta": 96049
  },
  {
    "name": "Bosia",
    "zipcode": "707566",
    "siruta": 96012
  },
  {
    "name": "Coada Stâncii",
    "zipcode": "707567",
    "siruta": 96021
  },
  {
    "name": "Mânzătești",
    "zipcode": "707568",
    "siruta": 96030
  },
  {
    "name": "Valea Seacă",
    "zipcode": "707570",
    "siruta": 99977
  },
  {
    "name": "Conțești",
    "zipcode": "707571",
    "siruta": 99986
  },
  {
    "name": "Topile",
    "zipcode": "707572",
    "siruta": 99995
  },
  {
    "name": "Vânători",
    "zipcode": "707575",
    "siruta": 100095
  },
  {
    "name": "Crivești (Vânători)",
    "zipcode": "707576",
    "siruta": 100102
  },
  {
    "name": "Gura Bâdiliței",
    "zipcode": "707577",
    "siruta": 100111
  },
  {
    "name": "Hârtoape",
    "zipcode": "707578",
    "siruta": 100120
  },
  {
    "name": "Vlădnicuț",
    "zipcode": "707579",
    "siruta": 100139
  },
  {
    "name": "Victoria",
    "zipcode": "707580",
    "siruta": 100013
  },
  {
    "name": "Frăsuleni",
    "zipcode": "707581",
    "siruta": 100022
  },
  {
    "name": "Icușeni",
    "zipcode": "707582",
    "siruta": 100031
  },
  {
    "name": "Luceni",
    "zipcode": "707583",
    "siruta": 100040
  },
  {
    "name": "Sculeni",
    "zipcode": "707584",
    "siruta": 100059
  },
  {
    "name": "Stânca (Victoria)",
    "zipcode": "707586",
    "siruta": 100068
  },
  {
    "name": "Șendreni",
    "zipcode": "707587",
    "siruta": 100077
  },
  {
    "name": "Vlădeni",
    "zipcode": "707590",
    "siruta": 100157
  },
  {
    "name": "Alexandru cel Bun",
    "zipcode": "707591",
    "siruta": 100166
  },
  {
    "name": "Borșa",
    "zipcode": "707592",
    "siruta": 100175
  },
  {
    "name": "Broșteni",
    "zipcode": "707593",
    "siruta": 100184
  },
  {
    "name": "Iacobeni",
    "zipcode": "707594",
    "siruta": 100193
  },
  {
    "name": "Vâlcelele",
    "zipcode": "707596",
    "siruta": 100200
  },
  {
    "name": "Voinești",
    "zipcode": "707600",
    "siruta": 100228
  },
  {
    "name": "Lungani (Voinești)",
    "zipcode": "707601",
    "siruta": 100237
  },
  {
    "name": "Schitu Stavnic",
    "zipcode": "707602",
    "siruta": 100246
  },
  {
    "name": "Slobozia (Voinești)",
    "zipcode": "707603",
    "siruta": 100255
  },
  {
    "name": "Vocotești",
    "zipcode": "707604",
    "siruta": 100264
  }
]