[
  {
    "name": "Roșiori de Vede",
    "zipcode": "145100",
    "siruta": 151889
  },
  {
    "name": "Turnu Măgurele",
    "zipcode": "145200",
    "siruta": 151692
  },
  {
    "name": "Videle",
    "zipcode": "145300",
    "siruta": 151914
  },
  {
    "name": "Coșoaia",
    "zipcode": "145301",
    "siruta": 151923
  },
  {
    "name": "Zimnicea",
    "zipcode": "145400",
    "siruta": 151987
  },
  {
    "name": "Balaci",
    "zipcode": "147005",
    "siruta": 152001
  },
  {
    "name": "Burdeni",
    "zipcode": "147006",
    "siruta": 152010
  },
  {
    "name": "Tecuci",
    "zipcode": "147007",
    "siruta": 152029
  },
  {
    "name": "Băbăița",
    "zipcode": "147010",
    "siruta": 152047
  },
  {
    "name": "Clănița",
    "zipcode": "147011",
    "siruta": 152056
  },
  {
    "name": "Frăsinet",
    "zipcode": "147012",
    "siruta": 152065
  },
  {
    "name": "Merișani (Băbăița)",
    "zipcode": "147013",
    "siruta": 152074
  },
  {
    "name": "Blejești",
    "zipcode": "147015",
    "siruta": 152092
  },
  {
    "name": "Baciu",
    "zipcode": "147016",
    "siruta": 152109
  },
  {
    "name": "Sericu",
    "zipcode": "147017",
    "siruta": 152118
  },
  {
    "name": "Bogdana",
    "zipcode": "147020",
    "siruta": 152136
  },
  {
    "name": "Broșteanca",
    "zipcode": "147021",
    "siruta": 152145
  },
  {
    "name": "Ulmeni",
    "zipcode": "147022",
    "siruta": 152154
  },
  {
    "name": "Urluiu",
    "zipcode": "147023",
    "siruta": 152163
  },
  {
    "name": "Botoroaga",
    "zipcode": "147025",
    "siruta": 152181
  },
  {
    "name": "Călugăru",
    "zipcode": "147026",
    "siruta": 152190
  },
  {
    "name": "Târnava",
    "zipcode": "147027",
    "siruta": 152207
  },
  {
    "name": "Tunari",
    "zipcode": "147028",
    "siruta": 152216
  },
  {
    "name": "Valea Cireșului",
    "zipcode": "147029",
    "siruta": 152225
  },
  {
    "name": "Bragadiru",
    "zipcode": "147030",
    "siruta": 152243
  },
  {
    "name": "Brânceni",
    "zipcode": "147035",
    "siruta": 152261
  },
  {
    "name": "Bujoreni",
    "zipcode": "147040",
    "siruta": 152289
  },
  {
    "name": "Dărvaș",
    "zipcode": "147041",
    "siruta": 152298
  },
  {
    "name": "Prunaru",
    "zipcode": "147042",
    "siruta": 152305
  },
  {
    "name": "Bujoru",
    "zipcode": "147045",
    "siruta": 152323
  },
  {
    "name": "Buzescu",
    "zipcode": "147050",
    "siruta": 152341
  },
  {
    "name": "Călinești",
    "zipcode": "147055",
    "siruta": 152369
  },
  {
    "name": "Antonești",
    "zipcode": "147056",
    "siruta": 152378
  },
  {
    "name": "Copăceanca",
    "zipcode": "147057",
    "siruta": 152387
  },
  {
    "name": "Licuriciu",
    "zipcode": "147058",
    "siruta": 152396
  },
  {
    "name": "Marița",
    "zipcode": "147059",
    "siruta": 152403
  },
  {
    "name": "Călmățuiu",
    "zipcode": "147060",
    "siruta": 152421
  },
  {
    "name": "Bujoru (Călmățuiu)",
    "zipcode": "147061",
    "siruta": 152430
  },
  {
    "name": "Caravaneți",
    "zipcode": "147062",
    "siruta": 152449
  },
  {
    "name": "Nicolae Bălcescu",
    "zipcode": "147063",
    "siruta": 152458
  },
  {
    "name": "Călmățuiu de Sus",
    "zipcode": "147065",
    "siruta": 152476
  },
  {
    "name": "Băcălești",
    "zipcode": "147066",
    "siruta": 152485
  },
  {
    "name": "Ionașcu",
    "zipcode": "147067",
    "siruta": 152494
  },
  {
    "name": "Cervenia",
    "zipcode": "147070",
    "siruta": 152519
  },
  {
    "name": "Ciolănești",
    "zipcode": "147075",
    "siruta": 152528
  },
  {
    "name": "Baldovinești",
    "zipcode": "147076",
    "siruta": 152546
  },
  {
    "name": "Ciolăneștii din Deal",
    "zipcode": "147077",
    "siruta": 152537
  },
  {
    "name": "Ciolăneștii din Vale",
    "zipcode": "147078",
    "siruta": 152555
  },
  {
    "name": "Ciuperceni",
    "zipcode": "147080",
    "siruta": 151718
  },
  {
    "name": "Poiana",
    "zipcode": "147081",
    "siruta": 151727
  },
  {
    "name": "Conțești",
    "zipcode": "147085",
    "siruta": 152573
  },
  {
    "name": "Cosmești",
    "zipcode": "147090",
    "siruta": 152591
  },
  {
    "name": "Ciuperceni (Cosmești)",
    "zipcode": "147091",
    "siruta": 152608
  },
  {
    "name": "Crângeni",
    "zipcode": "147095",
    "siruta": 152626
  },
  {
    "name": "Balta Sărată",
    "zipcode": "147096",
    "siruta": 152635
  },
  {
    "name": "Dorobanțu",
    "zipcode": "147097",
    "siruta": 152644
  },
  {
    "name": "Stejaru (Crângeni)",
    "zipcode": "147098",
    "siruta": 152653
  },
  {
    "name": "Crângu",
    "zipcode": "147100",
    "siruta": 152671
  },
  {
    "name": "Dracea",
    "zipcode": "147101",
    "siruta": 152680
  },
  {
    "name": "Florica",
    "zipcode": "147102",
    "siruta": 152699
  },
  {
    "name": "Secara",
    "zipcode": "147103",
    "siruta": 152706
  },
  {
    "name": "Zlata",
    "zipcode": "147104",
    "siruta": 152715
  },
  {
    "name": "Crevenicu",
    "zipcode": "147105",
    "siruta": 151941
  },
  {
    "name": "Rădulești",
    "zipcode": "147106",
    "siruta": 151950
  },
  {
    "name": "Didești",
    "zipcode": "147110",
    "siruta": 152733
  },
  {
    "name": "Însurăței",
    "zipcode": "147111",
    "siruta": 152742
  },
  {
    "name": "Satu Nou",
    "zipcode": "147112",
    "siruta": 152751
  },
  {
    "name": "Dobrotești",
    "zipcode": "147115",
    "siruta": 152779
  },
  {
    "name": "Merișani (Dobrotești)",
    "zipcode": "147116",
    "siruta": 152788
  },
  {
    "name": "Drăcșenei",
    "zipcode": "147120",
    "siruta": 152804
  },
  {
    "name": "Beuca",
    "zipcode": "147121",
    "siruta": 152813
  },
  {
    "name": "Drăcșani",
    "zipcode": "147122",
    "siruta": 152822
  },
  {
    "name": "Odobeasca",
    "zipcode": "147123",
    "siruta": 152831
  },
  {
    "name": "Plopi",
    "zipcode": "147124",
    "siruta": 152840
  },
  {
    "name": "Satul Vechi",
    "zipcode": "147126",
    "siruta": 152859
  },
  {
    "name": "Drăgănești de Vede",
    "zipcode": "147130",
    "siruta": 152877
  },
  {
    "name": "Măgura cu Liliac",
    "zipcode": "147131",
    "siruta": 152886
  },
  {
    "name": "Văcărești",
    "zipcode": "147132",
    "siruta": 152895
  },
  {
    "name": "Drăgănești-Vlașca",
    "zipcode": "147135",
    "siruta": 152911
  },
  {
    "name": "Comoara",
    "zipcode": "147136",
    "siruta": 152920
  },
  {
    "name": "Văceni",
    "zipcode": "147137",
    "siruta": 152939
  },
  {
    "name": "Frumoasa",
    "zipcode": "147140",
    "siruta": 153008
  },
  {
    "name": "Păuleasca",
    "zipcode": "147141",
    "siruta": 153017
  },
  {
    "name": "Furculești",
    "zipcode": "147145",
    "siruta": 152957
  },
  {
    "name": "Moșteni (Furculești)",
    "zipcode": "147146",
    "siruta": 152966
  },
  {
    "name": "Spătărei",
    "zipcode": "147147",
    "siruta": 152975
  },
  {
    "name": "Voievoda",
    "zipcode": "147148",
    "siruta": 152984
  },
  {
    "name": "Gălăteni",
    "zipcode": "147150",
    "siruta": 153035
  },
  {
    "name": "Bâscoveni",
    "zipcode": "147151",
    "siruta": 153044
  },
  {
    "name": "Grădișteanca",
    "zipcode": "147152",
    "siruta": 153053
  },
  {
    "name": "Gratia",
    "zipcode": "147155",
    "siruta": 153071
  },
  {
    "name": "Ciurari-Deal",
    "zipcode": "147156",
    "siruta": 153080
  },
  {
    "name": "Drăghinești",
    "zipcode": "147157",
    "siruta": 153099
  },
  {
    "name": "Islaz",
    "zipcode": "147160",
    "siruta": 151745
  },
  {
    "name": "Moldoveni",
    "zipcode": "147161",
    "siruta": 151754
  },
  {
    "name": "Izvoarele",
    "zipcode": "147165",
    "siruta": 153115
  },
  {
    "name": "Lisa",
    "zipcode": "147170",
    "siruta": 153133
  },
  {
    "name": "Vânători",
    "zipcode": "147171",
    "siruta": 153142
  },
  {
    "name": "Lița",
    "zipcode": "147175",
    "siruta": 151772
  },
  {
    "name": "Lunca",
    "zipcode": "147180",
    "siruta": 153160
  },
  {
    "name": "Pleașov",
    "zipcode": "147181",
    "siruta": 153179
  },
  {
    "name": "Prundu",
    "zipcode": "147182",
    "siruta": 153188
  },
  {
    "name": "Saelele",
    "zipcode": "147183",
    "siruta": 153197
  },
  {
    "name": "Mavrodin",
    "zipcode": "147185",
    "siruta": 153213
  },
  {
    "name": "Nenciulești",
    "zipcode": "147186",
    "siruta": 153222
  },
  {
    "name": "Păru Rotund",
    "zipcode": "147187",
    "siruta": 153231
  },
  {
    "name": "Măgura",
    "zipcode": "147190",
    "siruta": 153259
  },
  {
    "name": "Guruieni",
    "zipcode": "147191",
    "siruta": 153268
  },
  {
    "name": "Măldăeni",
    "zipcode": "147195",
    "siruta": 153286
  },
  {
    "name": "Mârzănești",
    "zipcode": "147200",
    "siruta": 153348
  },
  {
    "name": "Cernetu",
    "zipcode": "147201",
    "siruta": 153357
  },
  {
    "name": "Teleormanu",
    "zipcode": "147202",
    "siruta": 153366
  },
  {
    "name": "Valea Părului",
    "zipcode": "147203",
    "siruta": 153375
  },
  {
    "name": "Mereni",
    "zipcode": "147205",
    "siruta": 62137
  },
  {
    "name": "Merenii de Jos",
    "zipcode": "147206",
    "siruta": 153302
  },
  {
    "name": "Merenii de Sus",
    "zipcode": "147207",
    "siruta": 153311
  },
  {
    "name": "Ștefeni",
    "zipcode": "147208",
    "siruta": 153320
  },
  {
    "name": "Moșteni",
    "zipcode": "147210",
    "siruta": 153393
  },
  {
    "name": "Nanov",
    "zipcode": "147215",
    "siruta": 151825
  },
  {
    "name": "Năsturelu",
    "zipcode": "147220",
    "siruta": 153419
  },
  {
    "name": "Zimnicele",
    "zipcode": "147221",
    "siruta": 153428
  },
  {
    "name": "Necșești",
    "zipcode": "147225",
    "siruta": 153446
  },
  {
    "name": "Belciug",
    "zipcode": "147226",
    "siruta": 153455
  },
  {
    "name": "Gârdești",
    "zipcode": "147227",
    "siruta": 153464
  },
  {
    "name": "Olteni",
    "zipcode": "147230",
    "siruta": 153482
  },
  {
    "name": "Perii Broșteni",
    "zipcode": "147231",
    "siruta": 153491
  },
  {
    "name": "Orbeasca",
    "zipcode": "147235",
    "siruta": 153507
  },
  {
    "name": "Lăceni",
    "zipcode": "147236",
    "siruta": 153525
  },
  {
    "name": "Orbeasca de Jos",
    "zipcode": "147237",
    "siruta": 153516
  },
  {
    "name": "Orbeasca de Sus",
    "zipcode": "147238",
    "siruta": 153534
  },
  {
    "name": "Peretu",
    "zipcode": "147240",
    "siruta": 153552
  },
  {
    "name": "Piatra",
    "zipcode": "147245",
    "siruta": 153570
  },
  {
    "name": "Pietroșani",
    "zipcode": "147250",
    "siruta": 153598
  },
  {
    "name": "Plopii-Slăvitești",
    "zipcode": "147255",
    "siruta": 153632
  },
  {
    "name": "Bârseștii de Jos",
    "zipcode": "147256",
    "siruta": 153650
  },
  {
    "name": "Beciu",
    "zipcode": "147257",
    "siruta": 153641
  },
  {
    "name": "Brâncoveanca",
    "zipcode": "147258",
    "siruta": 153669
  },
  {
    "name": "Dudu",
    "zipcode": "147259",
    "siruta": 153678
  },
  {
    "name": "Smârdan",
    "zipcode": "147261",
    "siruta": 153687
  },
  {
    "name": "Plosca",
    "zipcode": "147265",
    "siruta": 153614
  },
  {
    "name": "Poeni",
    "zipcode": "147270",
    "siruta": 153703
  },
  {
    "name": "Banov",
    "zipcode": "147271",
    "siruta": 153712
  },
  {
    "name": "Brătești",
    "zipcode": "147272",
    "siruta": 153721
  },
  {
    "name": "Cătunu",
    "zipcode": "147273",
    "siruta": 153730
  },
  {
    "name": "Preajba",
    "zipcode": "147274",
    "siruta": 153749
  },
  {
    "name": "Țăvârlău",
    "zipcode": "147276",
    "siruta": 153758
  },
  {
    "name": "Vătași",
    "zipcode": "147277",
    "siruta": 153767
  },
  {
    "name": "Poroschia",
    "zipcode": "147280",
    "siruta": 151843
  },
  {
    "name": "Calomfirești",
    "zipcode": "147281",
    "siruta": 151852
  },
  {
    "name": "Putineiu",
    "zipcode": "147285",
    "siruta": 153838
  },
  {
    "name": "Băduleasa",
    "zipcode": "147286",
    "siruta": 153847
  },
  {
    "name": "Cârlomanu",
    "zipcode": "147287",
    "siruta": 153856
  },
  {
    "name": "Rădoiești",
    "zipcode": "147290",
    "siruta": 153865
  },
  {
    "name": "Cetatea",
    "zipcode": "147291",
    "siruta": 153883
  },
  {
    "name": "Rădoiești-Deal",
    "zipcode": "147292",
    "siruta": 153892
  },
  {
    "name": "Rădoiești-Vale",
    "zipcode": "147293",
    "siruta": 153874
  },
  {
    "name": "Răsmirești",
    "zipcode": "147295",
    "siruta": 153918
  },
  {
    "name": "Ludăneasca",
    "zipcode": "147296",
    "siruta": 153927
  },
  {
    "name": "Salcia",
    "zipcode": "147300",
    "siruta": 153945
  },
  {
    "name": "Băneasa",
    "zipcode": "147301",
    "siruta": 153954
  },
  {
    "name": "Tudor Vladimirescu",
    "zipcode": "147302",
    "siruta": 153963
  },
  {
    "name": "Săceni",
    "zipcode": "147305",
    "siruta": 153981
  },
  {
    "name": "Butculești",
    "zipcode": "147306",
    "siruta": 153990
  },
  {
    "name": "Ciurari",
    "zipcode": "147307",
    "siruta": 154004
  },
  {
    "name": "Sârbeni",
    "zipcode": "147310",
    "siruta": 154326
  },
  {
    "name": "Sârbenii de Jos",
    "zipcode": "147311",
    "siruta": 154317
  },
  {
    "name": "Udeni",
    "zipcode": "147312",
    "siruta": 154335
  },
  {
    "name": "Scrioaștea",
    "zipcode": "147315",
    "siruta": 154022
  },
  {
    "name": "Brebina",
    "zipcode": "147316",
    "siruta": 154031
  },
  {
    "name": "Cucueți",
    "zipcode": "147317",
    "siruta": 154040
  },
  {
    "name": "Viile",
    "zipcode": "147318",
    "siruta": 154059
  },
  {
    "name": "Scurtu Mare",
    "zipcode": "147320",
    "siruta": 154077
  },
  {
    "name": "Albeni",
    "zipcode": "147321",
    "siruta": 154086
  },
  {
    "name": "Drăcești",
    "zipcode": "147322",
    "siruta": 154095
  },
  {
    "name": "Negrilești",
    "zipcode": "147323",
    "siruta": 154102
  },
  {
    "name": "Scurtu-Slăvești",
    "zipcode": "147324",
    "siruta": 154111
  },
  {
    "name": "Valea Poștei",
    "zipcode": "147326",
    "siruta": 154120
  },
  {
    "name": "Seaca",
    "zipcode": "147330",
    "siruta": 154148
  },
  {
    "name": "Năvodari",
    "zipcode": "147331",
    "siruta": 154157
  },
  {
    "name": "Segarcea-Vale",
    "zipcode": "147335",
    "siruta": 154193
  },
  {
    "name": "Olteanca",
    "zipcode": "147336",
    "siruta": 154200
  },
  {
    "name": "Segarcea-Deal",
    "zipcode": "147337",
    "siruta": 154219
  },
  {
    "name": "Sfințești",
    "zipcode": "147340",
    "siruta": 154175
  },
  {
    "name": "Siliștea",
    "zipcode": "147345",
    "siruta": 154237
  },
  {
    "name": "Butești",
    "zipcode": "147346",
    "siruta": 154246
  },
  {
    "name": "Purani",
    "zipcode": "147347",
    "siruta": 154255
  },
  {
    "name": "Puranii de Sus",
    "zipcode": "147348",
    "siruta": 154264
  },
  {
    "name": "Siliștea Mică",
    "zipcode": "147349",
    "siruta": 154273
  },
  {
    "name": "Siliștea Gumești",
    "zipcode": "147350",
    "siruta": 154291
  },
  {
    "name": "Slobozia Mândra",
    "zipcode": "147355",
    "siruta": 154353
  },
  {
    "name": "Uda-Clocociov",
    "zipcode": "147356",
    "siruta": 154362
  },
  {
    "name": "Uda-Paciurea",
    "zipcode": "147357",
    "siruta": 154371
  },
  {
    "name": "Smârdioasa",
    "zipcode": "147360",
    "siruta": 154399
  },
  {
    "name": "Șoimu",
    "zipcode": "147361",
    "siruta": 154406
  },
  {
    "name": "Stejaru",
    "zipcode": "147365",
    "siruta": 154424
  },
  {
    "name": "Bratcovu",
    "zipcode": "147366",
    "siruta": 154433
  },
  {
    "name": "Gresia",
    "zipcode": "147367",
    "siruta": 154442
  },
  {
    "name": "Socetu",
    "zipcode": "147368",
    "siruta": 154451
  },
  {
    "name": "Suhaia",
    "zipcode": "147370",
    "siruta": 154479
  },
  {
    "name": "Fântânele",
    "zipcode": "147371",
    "siruta": 154488
  },
  {
    "name": "Ștorobăneasa",
    "zipcode": "147375",
    "siruta": 154503
  },
  {
    "name": "Beiu",
    "zipcode": "147376",
    "siruta": 154512
  },
  {
    "name": "Talpa",
    "zipcode": "147380",
    "siruta": 154521
  },
  {
    "name": "Linia Costii",
    "zipcode": "147381",
    "siruta": 154549
  },
  {
    "name": "Rotărești",
    "zipcode": "147382",
    "siruta": 154558
  },
  {
    "name": "Talpa Poștei",
    "zipcode": "147383",
    "siruta": 154576
  },
  {
    "name": "Talpa-Bâscoveni",
    "zipcode": "147384",
    "siruta": 154567
  },
  {
    "name": "Talpa-Ogrăzile",
    "zipcode": "147386",
    "siruta": 154530
  },
  {
    "name": "Tătărăștii de Jos",
    "zipcode": "147390",
    "siruta": 154594
  },
  {
    "name": "Lada",
    "zipcode": "147391",
    "siruta": 154601
  },
  {
    "name": "Negreni",
    "zipcode": "147392",
    "siruta": 154610
  },
  {
    "name": "Negrenii de Sus",
    "zipcode": "147393",
    "siruta": 154629
  },
  {
    "name": "Negrenii-Osebiți",
    "zipcode": "147394",
    "siruta": 154638
  },
  {
    "name": "Obârtu",
    "zipcode": "147396",
    "siruta": 154647
  },
  {
    "name": "Slăvești",
    "zipcode": "147397",
    "siruta": 154656
  },
  {
    "name": "Tătărăștii de Sus",
    "zipcode": "147400",
    "siruta": 154674
  },
  {
    "name": "Dobreni",
    "zipcode": "147401",
    "siruta": 154683
  },
  {
    "name": "Udupu",
    "zipcode": "147402",
    "siruta": 154692
  },
  {
    "name": "Traian",
    "zipcode": "147405",
    "siruta": 154745
  },
  {
    "name": "Trivalea-Moșteni",
    "zipcode": "147410",
    "siruta": 154763
  },
  {
    "name": "Brătășani",
    "zipcode": "147411",
    "siruta": 154772
  },
  {
    "name": "Deparați",
    "zipcode": "147412",
    "siruta": 154781
  },
  {
    "name": "Troianul",
    "zipcode": "147415",
    "siruta": 154807
  },
  {
    "name": "Dulceni",
    "zipcode": "147416",
    "siruta": 154816
  },
  {
    "name": "Vatra",
    "zipcode": "147417",
    "siruta": 154825
  },
  {
    "name": "Țigănești",
    "zipcode": "147420",
    "siruta": 154843
  },
  {
    "name": "Vârtoape",
    "zipcode": "147425",
    "siruta": 154932
  },
  {
    "name": "Gărăgău",
    "zipcode": "147426",
    "siruta": 154950
  },
  {
    "name": "Vârtoapele de Jos",
    "zipcode": "147427",
    "siruta": 154969
  },
  {
    "name": "Vârtoapele de Sus",
    "zipcode": "147428",
    "siruta": 154941
  },
  {
    "name": "Vedea",
    "zipcode": "147430",
    "siruta": 154861
  },
  {
    "name": "Albești",
    "zipcode": "147431",
    "siruta": 154870
  },
  {
    "name": "Coșoteni",
    "zipcode": "147432",
    "siruta": 154889
  },
  {
    "name": "Dulceanca",
    "zipcode": "147433",
    "siruta": 154898
  },
  {
    "name": "Meri",
    "zipcode": "147434",
    "siruta": 154905
  },
  {
    "name": "Viișoara",
    "zipcode": "147435",
    "siruta": 154923
  },
  {
    "name": "Vitănești",
    "zipcode": "147440",
    "siruta": 153810
  },
  {
    "name": "Purani (Vitănești)",
    "zipcode": "147441",
    "siruta": 153785
  },
  {
    "name": "Schitu Poienari",
    "zipcode": "147442",
    "siruta": 153794
  },
  {
    "name": "Siliștea (Vitănești)",
    "zipcode": "147443",
    "siruta": 153801
  },
  {
    "name": "Zâmbreasca",
    "zipcode": "147445",
    "siruta": 154987
  }
]